{"type": "FeatureCollection", "features": [{"type": "Feature", "properties": {"kind": "mask"}, "geometry": {"type": "Polygon", "coordinates": [[[-180, -85], [180, -85], [180, 85], [-180, 85], [-180, -85]], [[20.35293, 42.83338], [20.35185, 42.84063], [20.34801, 42.84646], [20.34864, 42.85604], [20.34208, 42.8692], [20.34602, 42.8774], [20.34494, 42.88816], [20.35003, 42.89596], [20.34557, 42.91122], [20.33631, 42.9077], [20.32947, 42.91374], [20.3258, 42.91238], [20.3222, 42.91603], [20.3203, 42.9149], [20.3163, 42.91719], [20.31022, 42.91743], [20.31072, 42.92101], [20.31245, 42.92166], [20.31129, 42.9234], [20.29879, 42.92187], [20.28745, 42.92759], [20.28404, 42.92728], [20.28348, 42.93157], [20.27828, 42.93244], [20.27767, 42.93529], [20.26994, 42.9317], [20.25153, 42.94015], [20.23904, 42.94059], [20.23277, 42.9448], [20.2291, 42.94441], [20.21021, 42.95837], [20.20672, 42.95923], [20.20114, 42.95738], [20.18853, 42.96023], [20.17391, 42.9723], [20.15891, 42.9755], [20.15337, 42.97437], [20.15149, 42.98036], [20.15306, 42.98508], [20.14883, 42.98889], [20.14705, 42.98914], [20.13741, 42.97926], [20.13636, 42.97417], [20.13127, 42.96912], [20.12167, 42.96373], [20.11752, 42.96541], [20.11105, 42.97166], [20.10799, 42.97128], [20.10285, 42.97446], [20.10224, 42.98177], [20.08718, 42.99236], [20.08672, 42.99557], [20.08264, 42.99352], [20.08002, 42.99401], [20.07848, 42.99723], [20.0738, 42.99647], [20.0658, 43.00129], [20.06394, 43.00683], [20.05413, 43.00946], [20.05636, 43.01765], [20.04933, 43.02199], [20.04466, 43.02862], [20.02868, 43.03734], [20.01218, 43.04253], [19.99215, 43.05181], [19.98402, 43.06609], [19.97506, 43.07447], [19.96745, 43.08719], [19.96959, 43.08832], [19.97352, 43.10367], [19.96986, 43.11285], [19.96951, 43.11144], [19.96275, 43.11108], [19.95576, 43.10802], [19.94995, 43.10248], [19.93729, 43.10068], [19.93011, 43.09604], [19.92198, 43.09591], [19.91788, 43.09151], [19.91664, 43.08596], [19.90687, 43.09095], [19.90296, 43.09925], [19.88753, 43.09736], [19.88594, 43.10173], [19.8813, 43.10274], [19.88293, 43.10509], [19.87802, 43.10975], [19.86992, 43.11312], [19.86129, 43.11034], [19.86072, 43.1062], [19.85039, 43.10192], [19.85162, 43.10027], [19.84519, 43.09986], [19.83869, 43.09404], [19.83383, 43.09612], [19.83631, 43.09997], [19.83318, 43.10729], [19.84035, 43.11195], [19.8371, 43.11565], [19.82596, 43.1181], [19.82011, 43.11562], [19.81145, 43.11548], [19.80672, 43.11735], [19.8074, 43.12099], [19.805, 43.12233], [19.79294, 43.12294], [19.78784, 43.12605], [19.78569, 43.12911], [19.78708, 43.13374], [19.78311, 43.13449], [19.78079, 43.13796], [19.77687, 43.1379], [19.78105, 43.14344], [19.77928, 43.14637], [19.77966, 43.15632], [19.77313, 43.16077], [19.77026, 43.16553], [19.76468, 43.16354], [19.75962, 43.16453], [19.75582, 43.16276], [19.7555, 43.16052], [19.74085, 43.15904], [19.73643, 43.16213], [19.73772, 43.16385], [19.73463, 43.16627], [19.73359, 43.17121], [19.70367, 43.17064], [19.68493, 43.168], [19.68009, 43.17339], [19.67878, 43.17888], [19.6709, 43.18383], [19.66355, 43.18645], [19.65979, 43.18514], [19.64066, 43.18898], [19.63691, 43.20038], [19.637, 43.20373], [19.63985, 43.20715], [19.63358, 43.21069], [19.62633, 43.22218], [19.61921, 43.22583], [19.61812, 43.23054], [19.60051, 43.23492], [19.59086, 43.23938], [19.57348, 43.2405], [19.56621, 43.243], [19.56195, 43.24195], [19.54485, 43.24756], [19.54463, 43.25281], [19.54134, 43.26018], [19.54284, 43.26094], [19.53355, 43.27131], [19.52957, 43.2731], [19.52725, 43.27934], [19.52744, 43.28501], [19.53766, 43.30422], [19.53556, 43.3091], [19.53263, 43.30959], [19.52804, 43.31709], [19.52137, 43.32094], [19.51708, 43.32031], [19.48524, 43.32759], [19.48201, 43.33357], [19.46113, 43.34481], [19.46327, 43.35232], [19.46012, 43.35448], [19.46188, 43.35906], [19.4574, 43.36513], [19.45047, 43.36722], [19.451, 43.38201], [19.44855, 43.38811], [19.43935, 43.3918], [19.43748, 43.39066], [19.42783, 43.39315], [19.42461, 43.39173], [19.419, 43.394], [19.41036, 43.39309], [19.40053, 43.39811], [19.39971, 43.40022], [19.3935, 43.40104], [19.3882, 43.40649], [19.39002, 43.40789], [19.38885, 43.4094], [19.38239, 43.41269], [19.3651, 43.4134], [19.36044, 43.41133], [19.34934, 43.41572], [19.33829, 43.42853], [19.33385, 43.43475], [19.33427, 43.4366], [19.32184, 43.44133], [19.30804, 43.44037], [19.29841, 43.44448], [19.28817, 43.4458], [19.28115, 43.44944], [19.27648, 43.45435], [19.27251, 43.45412], [19.26366, 43.45924], [19.25342, 43.46139], [19.24724, 43.46884], [19.23548, 43.47398], [19.22143, 43.48317], [19.22587, 43.48551], [19.22244, 43.49124], [19.22556, 43.49551], [19.22246, 43.50312], [19.22515, 43.5051], [19.2275, 43.51222], [19.22263, 43.52715], [19.25083, 43.52939], [19.24686, 43.53972], [19.24621, 43.54807], [19.24887, 43.55578], [19.24695, 43.55773], [19.25194, 43.56261], [19.25042, 43.5662], [19.25385, 43.57549], [19.25086, 43.58378], [19.24653, 43.58822], [19.24759, 43.59029], [19.24588, 43.5927], [19.26269, 43.58939], [19.26594, 43.59396], [19.2727, 43.59655], [19.26853, 43.60194], [19.25551, 43.59792], [19.26356, 43.60683], [19.27303, 43.5967], [19.28873, 43.59548], [19.29113, 43.60014], [19.30395, 43.58984], [19.3139, 43.58797], [19.33116, 43.59065], [19.33679, 43.58852], [19.35663, 43.60566], [19.36178, 43.60554], [19.36248, 43.60783], [19.36936, 43.61069], [19.37087, 43.60527], [19.38187, 43.60162], [19.38256, 43.59442], [19.3848, 43.59148], [19.39563, 43.59172], [19.40193, 43.58759], [19.39953, 43.58129], [19.38786, 43.57725], [19.39241, 43.5737], [19.40018, 43.57813], [19.40521, 43.57726], [19.40252, 43.57032], [19.40842, 43.56978], [19.42227, 43.57532], [19.41811, 43.5783], [19.43712, 43.58111], [19.44255, 43.58004], [19.44607, 43.58187], [19.45173, 43.57894], [19.47358, 43.57628], [19.48073, 43.57172], [19.49737, 43.5775], [19.51105, 43.58615], [19.50196, 43.59096], [19.4971, 43.59807], [19.49182, 43.59643], [19.49127, 43.6003], [19.49951, 43.61606], [19.4917, 43.62002], [19.49233, 43.62554], [19.48808, 43.63245], [19.49876, 43.63894], [19.50052, 43.63337], [19.50732, 43.63331], [19.50692, 43.62815], [19.51064, 43.62822], [19.51177, 43.63524], [19.51501, 43.64047], [19.51234, 43.64425], [19.51529, 43.64685], [19.52648, 43.64973], [19.53178, 43.66777], [19.52813, 43.67068], [19.51706, 43.68952], [19.51829, 43.69604], [19.51454, 43.70083], [19.51899, 43.70598], [19.51894, 43.71435], [19.51333, 43.71553], [19.50845, 43.72062], [19.48094, 43.73365], [19.47737, 43.74135], [19.47694, 43.7474], [19.4673, 43.75383], [19.46539, 43.76448], [19.45826, 43.76714], [19.45476, 43.77125], [19.44731, 43.77522], [19.43126, 43.77685], [19.43144, 43.78399], [19.42106, 43.79678], [19.4114, 43.79393], [19.40571, 43.79748], [19.39444, 43.79839], [19.39181, 43.80878], [19.37204, 43.82459], [19.37129, 43.82714], [19.3747, 43.83445], [19.36499, 43.83725], [19.34612, 43.85295], [19.33795, 43.86324], [19.3358, 43.86965], [19.32644, 43.87825], [19.31561, 43.88309], [19.31399, 43.88649], [19.3152, 43.88969], [19.30922, 43.89471], [19.31046, 43.89767], [19.29726, 43.90952], [19.29418, 43.91959], [19.28377, 43.92703], [19.28397, 43.931], [19.27181, 43.9385], [19.26713, 43.94676], [19.258, 43.94887], [19.25159, 43.95373], [19.2507, 43.95486], [19.25497, 43.95952], [19.25508, 43.96294], [19.25019, 43.97214], [19.23949, 43.98221], [19.23646, 43.98806], [19.23565, 44.0118], [19.2407, 44.01466], [19.24748, 44.01421], [19.267, 44.0004], [19.28399, 43.99724], [19.3045, 43.9975], [19.31567, 43.99336], [19.33426, 43.98259], [19.35662, 43.98129], [19.3584, 43.97997], [19.35747, 43.97567], [19.36201, 43.97203], [19.37543, 43.96664], [19.3788, 43.96251], [19.38866, 43.96026], [19.39574, 43.96157], [19.39938, 43.96683], [19.40361, 43.96864], [19.40753, 43.96815], [19.41986, 43.95999], [19.43268, 43.95789], [19.44829, 43.95958], [19.48649, 43.95552], [19.52372, 43.95582], [19.52904, 43.95734], [19.5396, 43.97399], [19.55046, 43.98013], [19.56652, 43.98424], [19.56777, 43.98887], [19.56371, 43.99537], [19.56389, 43.99908], [19.58832, 44.00313], [19.59833, 44.01], [19.61648, 44.01314], [19.62026, 44.01557], [19.62254, 44.02117], [19.61384, 44.035], [19.62373, 44.04985], [19.62247, 44.05251], [19.61795, 44.05395], [19.61178, 44.05001], [19.60445, 44.05068], [19.60043, 44.06932], [19.5892, 44.0721], [19.58211, 44.06756], [19.58288, 44.05322], [19.58134, 44.04818], [19.57848, 44.04617], [19.57384, 44.04666], [19.56886, 44.05088], [19.56563, 44.0615], [19.55793, 44.06968], [19.54642, 44.07453], [19.51125, 44.08129], [19.4959, 44.10069], [19.49316, 44.11521], [19.47213, 44.11845], [19.46974, 44.12139], [19.4701, 44.12697], [19.48208, 44.13838], [19.48339, 44.14182], [19.48173, 44.1459], [19.47415, 44.1498], [19.46653, 44.1488], [19.45499, 44.14087], [19.44879, 44.13164], [19.44388, 44.13172], [19.43293, 44.13553], [19.41994, 44.14408], [19.40827, 44.16908], [19.39693, 44.17129], [19.38135, 44.17943], [19.3671, 44.1808], [19.35907, 44.18431], [19.35539, 44.19955], [19.35982, 44.20742], [19.35488, 44.21347], [19.34937, 44.21485], [19.34352, 44.21912], [19.34287, 44.22281], [19.34878, 44.23175], [19.34223, 44.24301], [19.32995, 44.25052], [19.32786, 44.25812], [19.32796, 44.26881], [19.32517, 44.27125], [19.3157, 44.27323], [19.29809, 44.26939], [19.27931, 44.2767], [19.26951, 44.26984], [19.25139, 44.26266], [19.23819, 44.26187], [19.22928, 44.26397], [19.2228, 44.26902], [19.21725, 44.28711], [19.20964, 44.29115], [19.19848, 44.29121], [19.18951, 44.28383], [19.17985, 44.27982], [19.16535, 44.28458], [19.16156, 44.28852], [19.15876, 44.30039], [19.15592, 44.30345], [19.14751, 44.3098], [19.1368, 44.31312], [19.13152, 44.31809], [19.12968, 44.32943], [19.13669, 44.33543], [19.13644, 44.33901], [19.12283, 44.34082], [19.1141, 44.3446], [19.10895, 44.35681], [19.11116, 44.36021], [19.11949, 44.36374], [19.11974, 44.36739], [19.11246, 44.36947], [19.10652, 44.36681], [19.10276, 44.37125], [19.10374, 44.37811], [19.10704, 44.3831], [19.10707, 44.39342], [19.10969, 44.397], [19.11837, 44.40293], [19.14266, 44.41122], [19.14707, 44.41528], [19.14923, 44.43705], [19.14407, 44.4457], [19.14486, 44.45064], [19.13627, 44.45659], [19.14071, 44.47113], [19.13429, 44.48025], [19.13262, 44.49086], [19.12305, 44.50054], [19.12843, 44.51992], [19.13137, 44.52284], [19.144, 44.52692], [19.15161, 44.52394], [19.15539, 44.52558], [19.16349, 44.52343], [19.16315, 44.52211], [19.17101, 44.52631], [19.17553, 44.53181], [19.17668, 44.53645], [19.19016, 44.54678], [19.19205, 44.55181], [19.19204, 44.55503], [19.1822, 44.56172], [19.18346, 44.56268], [19.18174, 44.56509], [19.18232, 44.56908], [19.18579, 44.57613], [19.19093, 44.57695], [19.19897, 44.57482], [19.20212, 44.5775], [19.20631, 44.57691], [19.2067, 44.58345], [19.21993, 44.59434], [19.222, 44.60324], [19.22721, 44.61081], [19.22285, 44.61492], [19.2157, 44.61664], [19.21494, 44.61938], [19.23641, 44.623], [19.25076, 44.63385], [19.25716, 44.63479], [19.26634, 44.64808], [19.25896, 44.65528], [19.2592, 44.6576], [19.26384, 44.66041], [19.27262, 44.65722], [19.27956, 44.65876], [19.28045, 44.66179], [19.2827, 44.66207], [19.27621, 44.66802], [19.27917, 44.67135], [19.28109, 44.67828], [19.28912, 44.67948], [19.28905, 44.6816], [19.29127, 44.6825], [19.28721, 44.6874], [19.28855, 44.69089], [19.29071, 44.69211], [19.2948, 44.68824], [19.29878, 44.68725], [19.3038, 44.68908], [19.29996, 44.69521], [19.30899, 44.70573], [19.30674, 44.70907], [19.3024, 44.70862], [19.30052, 44.71335], [19.31082, 44.71609], [19.31405, 44.7208], [19.31257, 44.72333], [19.30329, 44.72748], [19.30174, 44.73093], [19.31206, 44.74111], [19.31846, 44.73969], [19.3264, 44.74199], [19.32768, 44.74645], [19.33063, 44.74797], [19.32985, 44.74982], [19.31888, 44.75018], [19.31499, 44.75292], [19.31612, 44.75652], [19.32426, 44.75777], [19.32384, 44.76377], [19.30742, 44.76406], [19.30122, 44.76918], [19.30503, 44.77334], [19.32199, 44.77455], [19.32581, 44.77831], [19.32432, 44.78414], [19.31797, 44.78555], [19.31423, 44.78123], [19.31075, 44.78045], [19.3056, 44.78397], [19.29728, 44.78233], [19.29457, 44.7858], [19.30181, 44.78969], [19.30465, 44.79432], [19.31447, 44.79394], [19.31733, 44.79561], [19.31698, 44.79974], [19.31129, 44.80242], [19.31012, 44.80548], [19.31295, 44.81253], [19.3241, 44.81279], [19.3241, 44.81481], [19.31726, 44.81909], [19.31788, 44.82164], [19.32681, 44.82284], [19.33337, 44.81777], [19.33585, 44.81944], [19.33361, 44.82383], [19.33568, 44.82805], [19.35319, 44.8264], [19.35549, 44.83461], [19.34548, 44.83971], [19.34738, 44.84707], [19.34596, 44.8525], [19.35194, 44.85862], [19.36495, 44.85444], [19.36747, 44.85612], [19.35969, 44.86658], [19.36489, 44.87416], [19.37156, 44.87823], [19.36927, 44.88052], [19.35246, 44.88583], [19.35122, 44.8891], [19.34603, 44.88953], [19.33532, 44.89542], [19.32241, 44.89939], [19.314, 44.90605], [19.29959, 44.90943], [19.28953, 44.90889], [19.27905, 44.90431], [19.27124, 44.90607], [19.25924, 44.91258], [19.25116, 44.91334], [19.23216, 44.9038], [19.2237, 44.89737], [19.2139, 44.89635], [19.20839, 44.89912], [19.20402, 44.90962], [19.19663, 44.91816], [19.18756, 44.92124], [19.17706, 44.92173], [19.16763, 44.91878], [19.15471, 44.90782], [19.14662, 44.90347], [19.12883, 44.89871], [19.11792, 44.88625], [19.08844, 44.8796], [19.07723, 44.86758], [19.0703, 44.86315], [19.0609, 44.86044], [19.02141, 44.8554], [19.00323, 44.88486], [18.99964, 44.88534], [18.99274, 44.89398], [18.99135, 44.90295], [18.98899, 44.90589], [18.99607, 44.91152], [18.99763, 44.91526], [19.01434, 44.92113], [19.03224, 44.92241], [19.04497, 44.91199], [19.0686, 44.90121], [19.07399, 44.90521], [19.08181, 44.90617], [19.08707, 44.91045], [19.08047, 44.9134], [19.08428, 44.91684], [19.08745, 44.9164], [19.08821, 44.91817], [19.08419, 44.91968], [19.08722, 44.92548], [19.10086, 44.92972], [19.10572, 44.93328], [19.11547, 44.93407], [19.12318, 44.93833], [19.14309, 44.94115], [19.14288, 44.94689], [19.15606, 44.95302], [19.154, 44.95477], [19.1542, 44.95758], [19.14682, 44.95737], [19.14746, 44.9755], [19.1387, 44.98067], [19.11923, 44.97592], [19.1135, 44.97074], [19.10973, 44.96987], [19.09264, 44.97114], [19.08652, 44.97436], [19.07498, 44.97129], [19.05196, 44.97719], [19.06113, 44.98291], [19.08004, 44.98762], [19.08621, 44.99373], [19.09272, 44.99513], [19.09613, 45.00534], [19.10276, 45.01086], [19.09955, 45.01443], [19.09735, 45.02452], [19.09911, 45.03296], [19.0957, 45.0339], [19.09439, 45.03787], [19.10257, 45.04409], [19.10161, 45.04643], [19.10582, 45.05143], [19.09523, 45.05854], [19.10594, 45.07922], [19.0927, 45.09088], [19.09162, 45.09299], [19.0944, 45.09772], [19.09336, 45.10153], [19.08788, 45.10701], [19.08387, 45.10737], [19.08202, 45.11002], [19.08443, 45.11134], [19.07665, 45.11387], [19.07785, 45.12773], [19.08143, 45.13205], [19.08121, 45.13426], [19.08767, 45.13829], [19.08646, 45.1454], [19.11448, 45.13754], [19.1201, 45.13376], [19.14195, 45.12972], [19.18724, 45.166], [19.19458, 45.17899], [19.16605, 45.18977], [19.16915, 45.19741], [19.17623, 45.2025], [19.17901, 45.20031], [19.19091, 45.20118], [19.21436, 45.18774], [19.22724, 45.18476], [19.23775, 45.17537], [19.24752, 45.17777], [19.25005, 45.17279], [19.27227, 45.17585], [19.27726, 45.17167], [19.28758, 45.17064], [19.2908, 45.17262], [19.2965, 45.17122], [19.29386, 45.17479], [19.29411, 45.17847], [19.28127, 45.1932], [19.28774, 45.19353], [19.28908, 45.1954], [19.28544, 45.1978], [19.28274, 45.20719], [19.28797, 45.20503], [19.31959, 45.20772], [19.32845, 45.18542], [19.33238, 45.1821], [19.32998, 45.17706], [19.34792, 45.17237], [19.34942, 45.16477], [19.35465, 45.16464], [19.35435, 45.16908], [19.36, 45.17017], [19.35888, 45.17282], [19.3628, 45.17336], [19.36374, 45.17552], [19.37226, 45.17054], [19.38819, 45.17319], [19.41857, 45.1658], [19.42518, 45.16768], [19.4357, 45.17314], [19.42797, 45.18755], [19.4348, 45.19007], [19.43542, 45.19317], [19.44727, 45.19591], [19.42744, 45.2175], [19.4225, 45.22513], [19.4207, 45.23343], [19.35405, 45.2314], [19.28891, 45.23642], [19.25498, 45.24354], [19.18002, 45.26849], [19.16837, 45.27401], [19.14195, 45.28125], [19.11424, 45.29284], [19.10369, 45.2998], [19.09746, 45.31349], [19.09748, 45.32718], [19.09102, 45.33577], [19.07309, 45.34167], [19.02759, 45.34427], [18.97637, 45.37229], [18.97093, 45.37812], [18.96951, 45.38276], [18.97089, 45.38933], [18.97529, 45.39373], [18.98407, 45.39851], [19.02046, 45.40194], [19.02728, 45.4068], [19.03024, 45.41208], [19.02976, 45.41823], [19.0247, 45.42393], [18.99659, 45.43999], [18.98974, 45.44788], [18.98864, 45.45443], [18.99159, 45.46149], [18.99179, 45.47957], [18.99915, 45.49288], [19.00597, 45.49715], [19.01631, 45.49469], [19.03005, 45.48798], [19.0436, 45.48512], [19.08248, 45.48784], [19.09178, 45.49238], [19.09885, 45.49989], [19.10112, 45.50429], [19.10004, 45.51438], [19.09581, 45.51918], [19.06996, 45.52999], [19.03385, 45.53454], [19.03048, 45.5381], [19.02641, 45.55293], [19.01835, 45.55727], [19.01131, 45.55718], [19.00444, 45.5519], [18.99763, 45.54296], [18.98801, 45.53784], [18.96181, 45.53284], [18.95155, 45.53287], [18.94288, 45.53532], [18.92707, 45.54384], [18.92343, 45.54977], [18.91761, 45.55446], [18.90948, 45.55522], [18.89498, 45.56025], [18.88812, 45.56831], [18.8903, 45.57538], [18.91196, 45.59326], [18.91459, 45.5975], [18.91416, 45.60137], [18.89946, 45.60789], [18.89782, 45.61146], [18.89984, 45.61694], [18.9322, 45.63037], [18.9398, 45.64281], [18.95943, 45.65566], [18.96576, 45.66212], [18.96678, 45.66969], [18.9497, 45.68148], [18.92294, 45.69181], [18.90616, 45.70762], [18.90165, 45.71862], [18.89792, 45.74089], [18.89247, 45.75574], [18.88849, 45.77585], [18.88106, 45.78223], [18.85754, 45.78834], [18.85027, 45.79543], [18.84697, 45.80751], [18.8489, 45.8182], [18.85553, 45.83188], [18.85739, 45.8441], [18.85631, 45.85623], [18.85169, 45.86227], [18.8372, 45.86598], [18.83139, 45.87046], [18.82871, 45.87746], [18.8281, 45.89579], [18.82346, 45.90309], [18.81499, 45.90941], [18.82164, 45.91465], [18.82756, 45.90479], [18.86822, 45.91125], [18.86463, 45.92075], [18.87122, 45.9162], [18.87915, 45.91644], [18.8865, 45.9214], [18.88992, 45.92138], [18.906, 45.93527], [18.96202, 45.92587], [18.98797, 45.9322], [18.9947, 45.92388], [19.00885, 45.9233], [18.99788, 45.94621], [19.00581, 45.95871], [19.01878, 45.96314], [19.03269, 45.96465], [19.055, 45.9655], [19.07956, 45.96353], [19.06566, 46.00004], [19.10459, 46.04], [19.13379, 46.03711], [19.14721, 46.00801], [19.14569, 46.0014], [19.14774, 45.99612], [19.20492, 45.99268], [19.19959, 45.99816], [19.23271, 45.99936], [19.23666, 45.99506], [19.28535, 45.99676], [19.29654, 45.9878], [19.30271, 45.99157], [19.2816, 46.01452], [19.36416, 46.05217], [19.38018, 46.03581], [19.39507, 46.04197], [19.41544, 46.04573], [19.42301, 46.05494], [19.43825, 46.06618], [19.46653, 46.08165], [19.46693, 46.08901], [19.46442, 46.09527], [19.48035, 46.10177], [19.48184, 46.1048], [19.48577, 46.10349], [19.50897, 46.11072], [19.52707, 46.12094], [19.50808, 46.1336], [19.50944, 46.13735], [19.50245, 46.14209], [19.51676, 46.15174], [19.52656, 46.14769], [19.53448, 46.15188], [19.56044, 46.1663], [19.55863, 46.16802], [19.56317, 46.16976], [19.55983, 46.17393], [19.56763, 46.17872], [19.6316, 46.16924], [19.66154, 46.19005], [19.66958, 46.18402], [19.67028, 46.18656], [19.68254, 46.17974], [19.68652, 46.18011], [19.6863, 46.1818], [19.69645, 46.18745], [19.69983, 46.18746], [19.71767, 46.17598], [19.71794, 46.17158], [19.72706, 46.1681], [19.73403, 46.16982], [19.74104, 46.16565], [19.75849, 46.14787], [19.77178, 46.14415], [19.78069, 46.14453], [19.7915, 46.1393], [19.79731, 46.13946], [19.80173, 46.13495], [19.81783, 46.12779], [19.84424, 46.1414], [19.85319, 46.14979], [19.87337, 46.15136], [19.91488, 46.16398], [19.93514, 46.17619], [20.01579, 46.17678], [20.02298, 46.1733], [20.03178, 46.14793], [20.03902, 46.14444], [20.05689, 46.14797], [20.06168, 46.14687], [20.06374, 46.14367], [20.07451, 46.15676], [20.09581, 46.17724], [20.10601, 46.17472], [20.10649, 46.17332], [20.10378, 46.17168], [20.10469, 46.16518], [20.10686, 46.16265], [20.13236, 46.15017], [20.13703, 46.14729], [20.13729, 46.14423], [20.14669, 46.14483], [20.16922, 46.15277], [20.18182, 46.16005], [20.20804, 46.14394], [20.21033, 46.13547], [20.22982, 46.12907], [20.23318, 46.12381], [20.24821, 46.12983], [20.25156, 46.12646], [20.24955, 46.11987], [20.25492, 46.1158], [20.26427, 46.12637], [20.26531, 46.12509], [20.26201, 46.12164], [20.26367, 46.11835], [20.27077, 46.11611], [20.28289, 46.11761], [20.2752, 46.11252], [20.26711, 46.11224], [20.26483, 46.10848], [20.27318, 46.09828], [20.30227, 46.08662], [20.30373, 46.08222], [20.31128, 46.07364], [20.30928, 46.0721], [20.34607, 46.04738], [20.34342, 46.04719], [20.33931, 46.04142], [20.34062, 46.03627], [20.35771, 46.00585], [20.35239, 46.0039], [20.35312, 45.99963], [20.34838, 45.99958], [20.40543, 45.96524], [20.44731, 45.97025], [20.48293, 45.95343], [20.50177, 45.91066], [20.51582, 45.89211], [20.54959, 45.89993], [20.54652, 45.90592], [20.5693, 45.91015], [20.57874, 45.88497], [20.57459, 45.88399], [20.57677, 45.87933], [20.57521, 45.87876], [20.58146, 45.86937], [20.59443, 45.87171], [20.59889, 45.86172], [20.61154, 45.86407], [20.66062, 45.82919], [20.65092, 45.8118], [20.65504, 45.80745], [20.65718, 45.80811], [20.66284, 45.79412], [20.68143, 45.79731], [20.6946, 45.76696], [20.69071, 45.7663], [20.69293, 45.75985], [20.69684, 45.76051], [20.70065, 45.75056], [20.7075, 45.75131], [20.71815, 45.7494], [20.71795, 45.75198], [20.73272, 45.75588], [20.77403, 45.75452], [20.78356, 45.78588], [20.82307, 45.77509], [20.81737, 45.75176], [20.81594, 45.74925], [20.80815, 45.74839], [20.80266, 45.73775], [20.80104, 45.70197], [20.79883, 45.70213], [20.80222, 45.69981], [20.79617, 45.68703], [20.80299, 45.68201], [20.80003, 45.67195], [20.80499, 45.65723], [20.78888, 45.64556], [20.7793, 45.62255], [20.76579, 45.61262], [20.77201, 45.58285], [20.79532, 45.58764], [20.81361, 45.56811], [20.81133, 45.56582], [20.82321, 45.55188], [20.81961, 45.55038], [20.83257, 45.53589], [20.82789, 45.53403], [20.80709, 45.51584], [20.76882, 45.50023], [20.77695, 45.49059], [20.77104, 45.48806], [20.77105, 45.47992], [20.83331, 45.47996], [20.86188, 45.4652], [20.86639, 45.46518], [20.87104, 45.46022], [20.87057, 45.45589], [20.87887, 45.45452], [20.87773, 45.4499], [20.88107, 45.44617], [20.87221, 45.44605], [20.87485, 45.44291], [20.87485, 45.43815], [20.86585, 45.43596], [20.86953, 45.43272], [20.86462, 45.43182], [20.87512, 45.4259], [20.90043, 45.41689], [20.92026, 45.41724], [20.92398, 45.40725], [20.92786, 45.40498], [20.92811, 45.40206], [20.93139, 45.40202], [20.93558, 45.39276], [20.93006, 45.39233], [20.93122, 45.38676], [20.94198, 45.38645], [20.94596, 45.3837], [20.94838, 45.38559], [20.95088, 45.37483], [20.96032, 45.36676], [20.98172, 45.35729], [20.99606, 45.34328], [21.00989, 45.34128], [21.01657, 45.32463], [21.06337, 45.33193], [21.0612, 45.31586], [21.07094, 45.31401], [21.08098, 45.31781], [21.09653, 45.2959], [21.12797, 45.30467], [21.14455, 45.30485], [21.1542, 45.31236], [21.1496, 45.31594], [21.16202, 45.3251], [21.16635, 45.31967], [21.17594, 45.32516], [21.18387, 45.32073], [21.18064, 45.31887], [21.18394, 45.31604], [21.17993, 45.31257], [21.18944, 45.29452], [21.19133, 45.28678], [21.20872, 45.27527], [21.20284, 45.26544], [21.21898, 45.25058], [21.22354, 45.25294], [21.24919, 45.2438], [21.27475, 45.22968], [21.29226, 45.24241], [21.32001, 45.23759], [21.32078, 45.24019], [21.3262, 45.2396], [21.32528, 45.23632], [21.33275, 45.23455], [21.33354, 45.23639], [21.33901, 45.23562], [21.33795, 45.23329], [21.3439, 45.23182], [21.36002, 45.2221], [21.36963, 45.22607], [21.39535, 45.21878], [21.40343, 45.22927], [21.41084, 45.22473], [21.41227, 45.22102], [21.43117, 45.2128], [21.4388, 45.2028], [21.4831, 45.19206], [21.49312, 45.17319], [21.50719, 45.17037], [21.51482, 45.17115], [21.52352, 45.15933], [21.52883, 45.14732], [21.52741, 45.13788], [21.49579, 45.12454], [21.48714, 45.12536], [21.47846, 45.1212], [21.4778, 45.11698], [21.46969, 45.10526], [21.47499, 45.0991], [21.48114, 45.09542], [21.48338, 45.09129], [21.4751, 45.08658], [21.46492, 45.07482], [21.4594, 45.07198], [21.4552, 45.06321], [21.45058, 45.06111], [21.45076, 45.0589], [21.44702, 45.05576], [21.44732, 45.05278], [21.45076, 45.05133], [21.45605, 45.04041], [21.42628, 45.03532], [21.42295, 45.03238], [21.42078, 45.0365], [21.40566, 45.03694], [21.40094, 45.03021], [21.39676, 45.03129], [21.39806, 45.02948], [21.39402, 45.03], [21.39515, 45.02847], [21.39297, 45.02713], [21.38856, 45.02925], [21.3824, 45.02707], [21.38258, 45.02557], [21.37951, 45.02843], [21.37686, 45.02669], [21.37469, 45.02826], [21.36023, 45.02044], [21.377, 45.00672], [21.37825, 45.00819], [21.38682, 45.00442], [21.38295, 45.00185], [21.38843, 44.99806], [21.40653, 44.99239], [21.40509, 44.98979], [21.41465, 44.98676], [21.40672, 44.97852], [21.43838, 44.96053], [21.44558, 44.96215], [21.46925, 44.95843], [21.51974, 44.93797], [21.5275, 44.9393], [21.54669, 44.93052], [21.54715, 44.92754], [21.55271, 44.92391], [21.5527, 44.92084], [21.5499, 44.9186], [21.55824, 44.90662], [21.5568, 44.90407], [21.56013, 44.889], [21.53263, 44.8825], [21.5107, 44.88004], [21.499, 44.87245], [21.4884, 44.87153], [21.48528, 44.86816], [21.47944, 44.87086], [21.47583, 44.86844], [21.47105, 44.87121], [21.46317, 44.86743], [21.45452, 44.87348], [21.45219, 44.87338], [21.45055, 44.87007], [21.44685, 44.87399], [21.44108, 44.8699], [21.44432, 44.8677], [21.44226, 44.86644], [21.43559, 44.87096], [21.43174, 44.86813], [21.41807, 44.87327], [21.41305, 44.86908], [21.4071, 44.86941], [21.40588, 44.86633], [21.40011, 44.86815], [21.39588, 44.86655], [21.38794, 44.86976], [21.38408, 44.86535], [21.3728, 44.86683], [21.36706, 44.86449], [21.36064, 44.85223], [21.35763, 44.85004], [21.3599, 44.848], [21.35747, 44.84646], [21.35808, 44.8443], [21.36192, 44.84365], [21.36163, 44.84064], [21.35451, 44.84168], [21.35307, 44.84032], [21.35703, 44.83556], [21.36028, 44.83659], [21.35918, 44.83417], [21.35564, 44.83288], [21.3565, 44.83168], [21.36277, 44.8324], [21.36417, 44.82925], [21.3563, 44.8272], [21.35847, 44.82162], [21.37286, 44.81669], [21.38229, 44.80921], [21.38788, 44.79767], [21.39046, 44.78582], [21.39598, 44.77965], [21.40336, 44.77653], [21.42089, 44.77339], [21.45881, 44.77694], [21.50426, 44.77113], [21.53696, 44.77255], [21.56304, 44.76741], [21.58613, 44.75935], [21.59154, 44.75558], [21.60103, 44.74361], [21.61198, 44.72499], [21.61546, 44.71386], [21.61097, 44.70127], [21.61143, 44.68777], [21.61817, 44.67148], [21.62413, 44.66545], [21.63709, 44.65973], [21.68907, 44.66527], [21.69803, 44.66314], [21.7162, 44.65444], [21.72878, 44.65349], [21.79339, 44.66386], [21.81347, 44.65075], [21.82538, 44.6506], [21.84198, 44.65432], [21.89302, 44.64499], [21.91742, 44.64747], [21.95072, 44.63515], [21.99289, 44.63274], [21.99924, 44.62765], [22.00413, 44.60825], [22.02147, 44.59619], [22.02531, 44.59095], [22.0283, 44.58306], [22.02786, 44.57006], [22.02562, 44.56424], [22.03719, 44.54188], [22.05751, 44.53232], [22.0707, 44.5234], [22.07708, 44.5129], [22.07919, 44.50512], [22.08405, 44.4999], [22.0997, 44.49245], [22.12513, 44.47561], [22.13664, 44.47082], [22.16109, 44.47218], [22.17746, 44.47823], [22.18708, 44.48498], [22.19126, 44.49282], [22.18981, 44.49805], [22.19369, 44.50792], [22.20592, 44.52132], [22.23024, 44.56137], [22.26426, 44.59577], [22.27166, 44.61109], [22.27464, 44.62589], [22.30027, 44.63901], [22.30245, 44.64445], [22.3024, 44.65112], [22.30843, 44.65869], [22.334, 44.67613], [22.36623, 44.67224], [22.37947, 44.67497], [22.39516, 44.68205], [22.40423, 44.68861], [22.41811, 44.70321], [22.42873, 44.70944], [22.44205, 44.71006], [22.46143, 44.71523], [22.46864, 44.71441], [22.48341, 44.70821], [22.49056, 44.70068], [22.50538, 44.69281], [22.51614, 44.68026], [22.53685, 44.66667], [22.5583, 44.64916], [22.56287, 44.6475], [22.56456, 44.64091], [22.57066, 44.63643], [22.62149, 44.61464], [22.63477, 44.61383], [22.66962, 44.61913], [22.67632, 44.61828], [22.67866, 44.6166], [22.67995, 44.61124], [22.68566, 44.60707], [22.69489, 44.60365], [22.70598, 44.60323], [22.71282, 44.59882], [22.75439, 44.56503], [22.7622, 44.55333], [22.76385, 44.54113], [22.75831, 44.53679], [22.71114, 44.52004], [22.69557, 44.51663], [22.685, 44.51969], [22.6411, 44.54512], [22.63081, 44.54738], [22.62741, 44.55044], [22.60804, 44.5527], [22.59008, 44.55091], [22.5769, 44.54592], [22.56428, 44.53556], [22.55983, 44.51568], [22.56069, 44.50431], [22.55666, 44.49721], [22.55648, 44.49039], [22.54824, 44.48125], [22.54299, 44.47874], [22.53642, 44.47841], [22.52142, 44.47185], [22.49788, 44.47748], [22.47039, 44.48043], [22.46277, 44.4779], [22.45817, 44.47184], [22.45741, 44.46747], [22.46011, 44.45716], [22.46728, 44.44103], [22.50077, 44.41865], [22.49884, 44.40397], [22.50329, 44.38119], [22.51548, 44.36259], [22.52395, 44.34066], [22.52721, 44.3364], [22.54613, 44.32403], [22.55787, 44.309], [22.56358, 44.30553], [22.57378, 44.30185], [22.58637, 44.30094], [22.61505, 44.29348], [22.65012, 44.29183], [22.67182, 44.28362], [22.67925, 44.27814], [22.6834, 44.27162], [22.68514, 44.26552], [22.68442, 44.25099], [22.6721, 44.22888], [22.67236, 44.21933], [22.67599, 44.21622], [22.66916, 44.21339], [22.66787, 44.20987], [22.66923, 44.20725], [22.66546, 44.2079], [22.66428, 44.21323], [22.65464, 44.2049], [22.64433, 44.20871], [22.64746, 44.20393], [22.64523, 44.19781], [22.64187, 44.19287], [22.63677, 44.19054], [22.64237, 44.18824], [22.64311, 44.18585], [22.6371, 44.18173], [22.63271, 44.18457], [22.62888, 44.18336], [22.63579, 44.17854], [22.63616, 44.17603], [22.6339, 44.17397], [22.62824, 44.1748], [22.62682, 44.17341], [22.62797, 44.17165], [22.62525, 44.17081], [22.6212, 44.17389], [22.61868, 44.17294], [22.6166, 44.17101], [22.61634, 44.16622], [22.61303, 44.16559], [22.61734, 44.16115], [22.62217, 44.16284], [22.62322, 44.15867], [22.62849, 44.15797], [22.62621, 44.14733], [22.62037, 44.15068], [22.61029, 44.10666], [22.61299, 44.1017], [22.61975, 44.0978], [22.6186, 44.08656], [22.61983, 44.08265], [22.61549, 44.07914], [22.61824, 44.07522], [22.62459, 44.07287], [22.61881, 44.06795], [22.62126, 44.06339], [22.58185, 44.0621], [22.58064, 44.05407], [22.55971, 44.05756], [22.55449, 44.05358], [22.53488, 44.05222], [22.53058, 44.04829], [22.54195, 44.04214], [22.53781, 44.03819], [22.54349, 44.03365], [22.53877, 44.0258], [22.53233, 44.0251], [22.53106, 44.0208], [22.5275, 44.01973], [22.4954, 44.01823], [22.48459, 44.02038], [22.46781, 44.01501], [22.44216, 44.01656], [22.44118, 44.01019], [22.40947, 44.00421], [22.41201, 43.99985], [22.40913, 43.99726], [22.41729, 43.99236], [22.40868, 43.98709], [22.40978, 43.98442], [22.40804, 43.98159], [22.41217, 43.97986], [22.4108, 43.97498], [22.41322, 43.97211], [22.4107, 43.96173], [22.41136, 43.95474], [22.40627, 43.94789], [22.40885, 43.93963], [22.39315, 43.93137], [22.38836, 43.92672], [22.38872, 43.92278], [22.39348, 43.9164], [22.39239, 43.91314], [22.39449, 43.90964], [22.38954, 43.89563], [22.38868, 43.87889], [22.37955, 43.84748], [22.36599, 43.82537], [22.36061, 43.82324], [22.35715, 43.80953], [22.36063, 43.80674], [22.36239, 43.79949], [22.3671, 43.79541], [22.37015, 43.7879], [22.37381, 43.78478], [22.37741, 43.77519], [22.39525, 43.75927], [22.40245, 43.7589], [22.39824, 43.75033], [22.39987, 43.73796], [22.39424, 43.73036], [22.40218, 43.72351], [22.40481, 43.71698], [22.40403, 43.71269], [22.40684, 43.70797], [22.40601, 43.70038], [22.408, 43.69577], [22.42167, 43.68407], [22.42041, 43.68145], [22.43038, 43.67587], [22.43973, 43.67377], [22.44593, 43.66641], [22.45978, 43.65888], [22.47806, 43.6565], [22.48251, 43.65297], [22.48525, 43.6452], [22.49183, 43.6392], [22.49149, 43.63373], [22.48173, 43.62439], [22.48818, 43.61848], [22.49008, 43.60782], [22.4936, 43.60053], [22.4871, 43.59129], [22.48928, 43.58755], [22.49663, 43.58356], [22.49136, 43.57142], [22.48769, 43.56867], [22.48997, 43.55614], [22.49337, 43.55236], [22.494, 43.54847], [22.4973, 43.54733], [22.50337, 43.54041], [22.50149, 43.52924], [22.50498, 43.5253], [22.50661, 43.51635], [22.51419, 43.51043], [22.51571, 43.50333], [22.52415, 43.49667], [22.5243, 43.48638], [22.53285, 43.47917], [22.53355, 43.47118], [22.55394, 43.46163], [22.57586, 43.46388], [22.58678, 43.45259], [22.59085, 43.44091], [22.59769, 43.43566], [22.62479, 43.42818], [22.63186, 43.42909], [22.63879, 43.43335], [22.66112, 43.42602], [22.65991, 43.42257], [22.66743, 43.40925], [22.66692, 43.40274], [22.67829, 43.39473], [22.69884, 43.39356], [22.72312, 43.39547], [22.73242, 43.38946], [22.74481, 43.38777], [22.75627, 43.38042], [22.76667, 43.37741], [22.76993, 43.37099], [22.76866, 43.36689], [22.76995, 43.36361], [22.78538, 43.3549], [22.79111, 43.34974], [22.79508, 43.34263], [22.80386, 43.33802], [22.81379, 43.33706], [22.82771, 43.32888], [22.83102, 43.31231], [22.83703, 43.30702], [22.83769, 43.30202], [22.84547, 43.29672], [22.84231, 43.2864], [22.84514, 43.28098], [22.84788, 43.27961], [22.84857, 43.27546], [22.8589, 43.27433], [22.86898, 43.2674], [22.87051, 43.25463], [22.88277, 43.24485], [22.88813, 43.23585], [22.89624, 43.23078], [22.89635, 43.22679], [22.90792, 43.22095], [22.92033, 43.21855], [22.92273, 43.21496], [22.93495, 43.20905], [22.9412, 43.20253], [22.95892, 43.20702], [22.98013, 43.2017], [22.98294, 43.20262], [22.99695, 43.19422], [23.00627, 43.19287], [23.00626, 43.18702], [22.9864, 43.16667], [22.99445, 43.16212], [22.99741, 43.15584], [22.9937, 43.15063], [22.99611, 43.13989], [22.99507, 43.13615], [22.98471, 43.12103], [22.98324, 43.11148], [22.95479, 43.09547], [22.95263, 43.09241], [22.93325, 43.0883], [22.91844, 43.08007], [22.91836, 43.07593], [22.90919, 43.05578], [22.89978, 43.04828], [22.8984, 43.03622], [22.86253, 43.02142], [22.84944, 43.00482], [22.82212, 42.99305], [22.78384, 42.98163], [22.78615, 42.97533], [22.78394, 42.97133], [22.78665, 42.96836], [22.78266, 42.96439], [22.78514, 42.95848], [22.78071, 42.95534], [22.78291, 42.95277], [22.78233, 42.95045], [22.77882, 42.95312], [22.77777, 42.95021], [22.77549, 42.95107], [22.77435, 42.94919], [22.76995, 42.94947], [22.76851, 42.94786], [22.77371, 42.93823], [22.77225, 42.93588], [22.77994, 42.93183], [22.7778, 42.92564], [22.77443, 42.91929], [22.7722, 42.91749], [22.7681, 42.91785], [22.76019, 42.91113], [22.76202, 42.90807], [22.75886, 42.90391], [22.75965, 42.90262], [22.753, 42.89921], [22.75436, 42.89463], [22.74465, 42.88615], [22.73571, 42.88492], [22.73012, 42.88864], [22.72081, 42.88498], [22.71377, 42.8869], [22.70524, 42.87938], [22.70168, 42.88433], [22.69728, 42.8843], [22.6956, 42.88356], [22.69555, 42.8787], [22.68144, 42.87219], [22.68228, 42.86837], [22.67824, 42.86552], [22.67532, 42.86631], [22.6728, 42.87354], [22.67365, 42.87597], [22.66727, 42.87681], [22.66113, 42.8818], [22.6564, 42.88302], [22.65286, 42.88323], [22.64031, 42.87797], [22.61943, 42.89605], [22.60373, 42.8919], [22.59639, 42.89426], [22.59137, 42.89043], [22.5841, 42.8922], [22.58003, 42.88337], [22.57272, 42.87562], [22.57382, 42.87366], [22.57212, 42.87146], [22.57543, 42.86291], [22.56395, 42.8703], [22.55372, 42.87239], [22.53547, 42.88213], [22.52798, 42.87653], [22.52057, 42.87577], [22.51547, 42.8686], [22.51755, 42.86446], [22.51498, 42.86339], [22.51758, 42.86175], [22.51573, 42.85689], [22.50718, 42.85059], [22.49891, 42.84899], [22.47453, 42.83156], [22.46964, 42.83061], [22.46493, 42.83369], [22.46119, 42.83068], [22.44642, 42.82487], [22.44154, 42.82535], [22.43966, 42.82329], [22.44089, 42.80575], [22.4488, 42.8024], [22.44955, 42.79574], [22.45591, 42.7931], [22.45908, 42.78686], [22.46002, 42.77771], [22.4763, 42.76723], [22.47605, 42.76302], [22.48491, 42.75111], [22.49943, 42.7438], [22.50135, 42.73964], [22.4962, 42.73299], [22.49656, 42.72263], [22.48603, 42.7214], [22.48269, 42.71478], [22.47559, 42.71009], [22.4711, 42.70025], [22.47216, 42.69511], [22.46724, 42.69137], [22.45844, 42.6895], [22.46036, 42.68375], [22.46964, 42.68198], [22.47597, 42.67578], [22.47267, 42.66693], [22.46792, 42.66362], [22.46646, 42.65952], [22.45868, 42.65505], [22.46148, 42.65253], [22.46146, 42.6484], [22.45387, 42.64644], [22.46761, 42.64076], [22.46488, 42.63252], [22.45836, 42.63119], [22.45863, 42.62214], [22.45566, 42.61749], [22.4527, 42.61625], [22.4514, 42.61213], [22.44978, 42.59516], [22.44055, 42.58856], [22.43902, 42.58158], [22.44055, 42.57798], [22.43782, 42.57215], [22.43901, 42.56588], [22.45158, 42.56694], [22.47102, 42.56194], [22.47732, 42.55387], [22.49217, 42.54625], [22.49894, 42.53548], [22.50632, 42.53289], [22.51358, 42.52703], [22.51946, 42.52807], [22.52427, 42.52524], [22.52915, 42.51902], [22.54744, 42.50726], [22.55134, 42.49583], [22.55436, 42.49417], [22.55872, 42.48538], [22.55926, 42.48027], [22.55256, 42.47326], [22.55322, 42.47124], [22.5495, 42.46677], [22.54389, 42.4635], [22.54388, 42.45882], [22.54052, 42.454], [22.54398, 42.44874], [22.54096, 42.44597], [22.54149, 42.4404], [22.53727, 42.43657], [22.53549, 42.43136], [22.53531, 42.42119], [22.52629, 42.41705], [22.52287, 42.41273], [22.5221, 42.40396], [22.52023, 42.40144], [22.52114, 42.39781], [22.51377, 42.39471], [22.50823, 42.39735], [22.47797, 42.39415], [22.48088, 42.3875], [22.48059, 42.38025], [22.46927, 42.37602], [22.46857, 42.37113], [22.45953, 42.36201], [22.46107, 42.34714], [22.4633, 42.34493], [22.45293, 42.33172], [22.44019, 42.32854], [22.43229, 42.32303], [22.42363, 42.33385], [22.42099, 42.33063], [22.41549, 42.32931], [22.40377, 42.3326], [22.40123, 42.32638], [22.38835, 42.32548], [22.3865, 42.32298], [22.38033, 42.32417], [22.36968, 42.32168], [22.36583, 42.32396], [22.36642, 42.32095], [22.36305, 42.31803], [22.36022, 42.3111], [22.35653, 42.3114], [22.35078, 42.31799], [22.3333, 42.32123], [22.32258, 42.33409], [22.31644, 42.33171], [22.31434, 42.33273], [22.30895, 42.33909], [22.29218, 42.34966], [22.29087, 42.35262], [22.2951, 42.36254], [22.29906, 42.36494], [22.29769, 42.37097], [22.29398, 42.3739], [22.28085, 42.36873], [22.27318, 42.36134], [22.2689, 42.36214], [22.26343, 42.36667], [22.25155, 42.36237], [22.25279, 42.35561], [22.25103, 42.35088], [22.23686, 42.35012], [22.23653, 42.34834], [22.24097, 42.34845], [22.24415, 42.34634], [22.22954, 42.33566], [22.22219, 42.33489], [22.22263, 42.33697], [22.21933, 42.33863], [22.20641, 42.33627], [22.20216, 42.34039], [22.19477, 42.33987], [22.18703, 42.33405], [22.18153, 42.33256], [22.18152, 42.3253], [22.17375, 42.3216], [22.17084, 42.31584], [22.1665, 42.31229], [22.16184, 42.31365], [22.15894, 42.31793], [22.14547, 42.32142], [22.1395, 42.31432], [22.14002, 42.31256], [22.13279, 42.30725], [22.12542, 42.30947], [22.11895, 42.31503], [22.10933, 42.30888], [22.10512, 42.30963], [22.10135, 42.30542], [22.09789, 42.30712], [22.08449, 42.30242], [22.07417, 42.30336], [22.07128, 42.29996], [22.06558, 42.2985], [22.061, 42.30369], [22.05446, 42.30403], [22.05059, 42.30771], [22.04511, 42.30742], [22.0319, 42.29813], [22.02308, 42.30063], [22.01765, 42.30797], [22.00858, 42.3107], [22.00646, 42.31497], [21.99699, 42.32069], [21.98625, 42.32541], [21.97845, 42.32611], [21.96543, 42.33501], [21.96242, 42.33493], [21.95723, 42.33995], [21.95041, 42.34115], [21.94599, 42.34459], [21.93304, 42.34064], [21.93478, 42.33969], [21.93232, 42.33852], [21.93469, 42.33638], [21.93037, 42.32489], [21.9283, 42.31001], [21.92156, 42.30601], [21.89917, 42.30119], [21.89262, 42.3007], [21.88317, 42.31335], [21.87778, 42.31205], [21.87637, 42.30972], [21.87381, 42.31083], [21.87349, 42.3085], [21.86888, 42.30937], [21.86564, 42.31757], [21.85995, 42.31952], [21.85715, 42.32326], [21.85164, 42.32581], [21.8381, 42.32362], [21.83378, 42.32057], [21.83575, 42.31151], [21.82597, 42.30546], [21.82353, 42.30321], [21.82567, 42.30141], [21.82415, 42.29932], [21.81531, 42.29381], [21.80359, 42.29368], [21.79508, 42.29863], [21.78952, 42.28458], [21.78692, 42.2847], [21.78609, 42.28019], [21.77925, 42.27819], [21.77786, 42.27593], [21.78078, 42.27597], [21.77966, 42.27293], [21.78104, 42.27254], [21.77509, 42.27147], [21.7797, 42.26823], [21.77692, 42.26755], [21.77873, 42.26696], [21.77713, 42.26501], [21.77252, 42.26826], [21.7732, 42.26434], [21.76907, 42.26617], [21.76523, 42.25966], [21.75692, 42.25693], [21.75049, 42.26113], [21.73364, 42.26099], [21.72726, 42.26465], [21.72747, 42.26093], [21.7242, 42.26073], [21.72528, 42.25803], [21.72098, 42.25735], [21.7179, 42.25369], [21.71472, 42.25442], [21.7139, 42.24386], [21.712, 42.24417], [21.71176, 42.24124], [21.7048, 42.23673], [21.70215, 42.23689], [21.7022, 42.23401], [21.69897, 42.23245], [21.69444, 42.23313], [21.69105, 42.23883], [21.68428, 42.24214], [21.67883, 42.24279], [21.67963, 42.24112], [21.67592, 42.24073], [21.67332, 42.24326], [21.66617, 42.24213], [21.66357, 42.24389], [21.6633, 42.24653], [21.65779, 42.24892], [21.65498, 42.24709], [21.64951, 42.24957], [21.62812, 42.25105], [21.61916, 42.25314], [21.61283, 42.25714], [21.60544, 42.25476], [21.60028, 42.25675], [21.60092, 42.25428], [21.58695, 42.26284], [21.56905, 42.25074], [21.56305, 42.25074], [21.55855, 42.25302], [21.55769, 42.25077], [21.55371, 42.25042], [21.54957, 42.25359], [21.54491, 42.25363], [21.5443, 42.25113], [21.54276, 42.25245], [21.5388, 42.25048], [21.53204, 42.24062], [21.52128, 42.24147], [21.51769, 42.25949], [21.52015, 42.26065], [21.51112, 42.26602], [21.51114, 42.27054], [21.50722, 42.27188], [21.5039, 42.2698], [21.49623, 42.2746], [21.48666, 42.27391], [21.4708, 42.28004], [21.45666, 42.2765], [21.45024, 42.27673], [21.44828, 42.27905], [21.43999, 42.27427], [21.44042, 42.26234], [21.43216, 42.2598], [21.43491, 42.24962], [21.44354, 42.24129], [21.44214, 42.23939], [21.44432, 42.23493], [21.43394, 42.23169], [21.42977, 42.23667], [21.42692, 42.23622], [21.42437, 42.2398], [21.42032, 42.24103], [21.42198, 42.24239], [21.41983, 42.24226], [21.41723, 42.24578], [21.41382, 42.24392], [21.40922, 42.24711], [21.40357, 42.2469], [21.40129, 42.24916], [21.39082, 42.24556], [21.3851, 42.24648], [21.38215, 42.24461], [21.38567, 42.24146], [21.37534, 42.23595], [21.37495, 42.23099], [21.36968, 42.22729], [21.37129, 42.22425], [21.36674, 42.22117], [21.36139, 42.22217], [21.35838, 42.22077], [21.35616, 42.21508], [21.35257, 42.21532], [21.3458, 42.2048], [21.33834, 42.20368], [21.33502, 42.20748], [21.33575, 42.2051], [21.33393, 42.20482], [21.33106, 42.19907], [21.3352, 42.19032], [21.32942, 42.18321], [21.32699, 42.17616], [21.3182, 42.17298], [21.32042, 42.17114], [21.31728, 42.17016], [21.32099, 42.16076], [21.31404, 42.15553], [21.31513, 42.15346], [21.31285, 42.15264], [21.31159, 42.14932], [21.30855, 42.1489], [21.31019, 42.14714], [21.30816, 42.14551], [21.30935, 42.14403], [21.30238, 42.1413], [21.30359, 42.13992], [21.30234, 42.1385], [21.30661, 42.13402], [21.30462, 42.13375], [21.30523, 42.13209], [21.31053, 42.12768], [21.31201, 42.12124], [21.31626, 42.11838], [21.31509, 42.11457], [21.32129, 42.10802], [21.3035, 42.10447], [21.29936, 42.11093], [21.29554, 42.11218], [21.29135, 42.1051], [21.27889, 42.10104], [21.27261, 42.09593], [21.25688, 42.09279], [21.23913, 42.09389], [21.23344, 42.09531], [21.23345, 42.09824], [21.22231, 42.09374], [21.22039, 42.10202], [21.21653, 42.10413], [21.21256, 42.11096], [21.21521, 42.11416], [21.21692, 42.12403], [21.2145, 42.13282], [21.2106, 42.13499], [21.20806, 42.13842], [21.20868, 42.14059], [21.20589, 42.14205], [21.20512, 42.14506], [21.20324, 42.14488], [21.20296, 42.14761], [21.2, 42.14787], [21.20018, 42.15115], [21.19537, 42.15223], [21.19596, 42.15463], [21.19216, 42.15554], [21.19097, 42.15972], [21.18455, 42.163], [21.18658, 42.16399], [21.18522, 42.16515], [21.1806, 42.16675], [21.17408, 42.17953], [21.16825, 42.18556], [21.17117, 42.1869], [21.16237, 42.19663], [21.12536, 42.2022], [21.1191, 42.20684], [21.10388, 42.20595], [21.09747, 42.20245], [21.0913, 42.1942], [21.08071, 42.1888], [21.0688, 42.18627], [21.06147, 42.18142], [21.04953, 42.16655], [21.04325, 42.16609], [21.02824, 42.15613], [21.02644, 42.15225], [21.00926, 42.15062], [21.00114, 42.14531], [20.98619, 42.14222], [20.98264, 42.13918], [20.97275, 42.13898], [20.96939, 42.13657], [20.94482, 42.13809], [20.92794, 42.12733], [20.92001, 42.12858], [20.91449, 42.11521], [20.89842, 42.10495], [20.89154, 42.09744], [20.87715, 42.09621], [20.86063, 42.09965], [20.84322, 42.09862], [20.83414, 42.08597], [20.80259, 42.08164], [20.79281, 42.08365], [20.78465, 42.07889], [20.78392, 42.07458], [20.78599, 42.07175], [20.77129, 42.0596], [20.75821, 42.05341], [20.7594, 42.04815], [20.76299, 42.04498], [20.76507, 42.0453], [20.76355, 42.04083], [20.74815, 42.02571], [20.75208, 42.01517], [20.74826, 41.99542], [20.74876, 41.98238], [20.75438, 41.97965], [20.76712, 41.96276], [20.76603, 41.95363], [20.75906, 41.95107], [20.75474, 41.94678], [20.76873, 41.92919], [20.77294, 41.92676], [20.77059, 41.9245], [20.77216, 41.92107], [20.77652, 41.91849], [20.75568, 41.90607], [20.74971, 41.89486], [20.74047, 41.8928], [20.73635, 41.88647], [20.73584, 41.8769], [20.72797, 41.86428], [20.70696, 41.86571], [20.68348, 41.85773], [20.68127, 41.85959], [20.67848, 41.86853], [20.67055, 41.87341], [20.66335, 41.87527], [20.64843, 41.87453], [20.6364, 41.86353], [20.61925, 41.85779], [20.60404, 41.86777], [20.59437, 41.87719], [20.59372, 41.88442], [20.58864, 41.88962], [20.57577, 41.91751], [20.58553, 41.91759], [20.59014, 41.92672], [20.60517, 41.93083], [20.61943, 41.9394], [20.6236, 41.95654], [20.62659, 41.96098], [20.62426, 41.97433], [20.6216, 41.97854], [20.61182, 41.98542], [20.61171, 41.98965], [20.60157, 42.01706], [20.5973, 42.0197], [20.59455, 42.04278], [20.5759, 42.05813], [20.56982, 42.05906], [20.55776, 42.0752], [20.559, 42.07886], [20.55458, 42.08259], [20.56359, 42.09515], [20.56752, 42.09785], [20.56094, 42.10865], [20.56812, 42.12122], [20.56213, 42.13293], [20.55539, 42.14004], [20.55854, 42.14657], [20.54307, 42.16066], [20.54709, 42.16471], [20.54276, 42.16623], [20.54256, 42.17172], [20.53696, 42.17682], [20.53149, 42.18594], [20.52416, 42.21045], [20.514, 42.2243], [20.50215, 42.22812], [20.4964, 42.2412], [20.47673, 42.25343], [20.4753, 42.2588], [20.46384, 42.26546], [20.4564, 42.27225], [20.44442, 42.27482], [20.44195, 42.27736], [20.42477, 42.27848], [20.42323, 42.28252], [20.40469, 42.28468], [20.39477, 42.29865], [20.3906, 42.2982], [20.37414, 42.30571], [20.3534, 42.30964], [20.35391, 42.31722], [20.34843, 42.32062], [20.34583, 42.32491], [20.33913, 42.3277], [20.32724, 42.32773], [20.32116, 42.32201], [20.31402, 42.32043], [20.30872, 42.31532], [20.30552, 42.31492], [20.29416, 42.32093], [20.2927, 42.32347], [20.25726, 42.31878], [20.25476, 42.32251], [20.24836, 42.32267], [20.24261, 42.32696], [20.24785, 42.33317], [20.24225, 42.34203], [20.23606, 42.34734], [20.2448, 42.35296], [20.2452, 42.37], [20.24024, 42.37363], [20.24165, 42.37577], [20.24009, 42.38011], [20.23566, 42.38123], [20.23378, 42.38498], [20.22152, 42.39316], [20.20988, 42.39829], [20.20801, 42.40162], [20.21401, 42.40971], [20.2261, 42.4144], [20.22764, 42.41925], [20.22664, 42.4233], [20.22309, 42.4257], [20.22063, 42.4337], [20.21137, 42.43912], [20.20781, 42.44453], [20.19299, 42.45247], [20.19204, 42.45676], [20.1968, 42.46246], [20.18916, 42.47033], [20.18245, 42.47301], [20.18026, 42.48659], [20.17124, 42.49074], [20.16735, 42.49576], [20.16597, 42.49922], [20.16717, 42.50251], [20.16505, 42.50668], [20.16145, 42.50699], [20.14953, 42.5144], [20.12286, 42.52221], [20.12125, 42.52347], [20.12189, 42.52566], [20.10022, 42.53258], [20.09795, 42.53428], [20.09572, 42.54155], [20.08953, 42.54537], [20.08831, 42.55067], [20.0763, 42.55582], [20.07888, 42.55609], [20.08398, 42.57059], [20.08849, 42.576], [20.08573, 42.58245], [20.08617, 42.58745], [20.07282, 42.6069], [20.07613, 42.6147], [20.07573, 42.62091], [20.08994, 42.6309], [20.09701, 42.64261], [20.1087, 42.64783], [20.11194, 42.6554], [20.08857, 42.66872], [20.08339, 42.68004], [20.06827, 42.68029], [20.06367, 42.68486], [20.05443, 42.68479], [20.04507, 42.69548], [20.03333, 42.69705], [20.03152, 42.70589], [20.03319, 42.71074], [20.01635, 42.70925], [20.01728, 42.71359], [20.02649, 42.71541], [20.03219, 42.72013], [20.01864, 42.72441], [20.01492, 42.72834], [20.01627, 42.73519], [20.0143, 42.74082], [20.01657, 42.74464], [20.0196, 42.74478], [20.0233, 42.75181], [20.02204, 42.75752], [20.02465, 42.76514], [20.03229, 42.76491], [20.03338, 42.76888], [20.04343, 42.77457], [20.04734, 42.77349], [20.06038, 42.77907], [20.06995, 42.7749], [20.08492, 42.77431], [20.09819, 42.77671], [20.10479, 42.77301], [20.10371, 42.77009], [20.11499, 42.76387], [20.12578, 42.76266], [20.14676, 42.75461], [20.14888, 42.76335], [20.15499, 42.76841], [20.16766, 42.76176], [20.17383, 42.75546], [20.18276, 42.75362], [20.19117, 42.74528], [20.19573, 42.75043], [20.20591, 42.74936], [20.21286, 42.74623], [20.21322, 42.74874], [20.22169, 42.75261], [20.23432, 42.75275], [20.23677, 42.75685], [20.25043, 42.75917], [20.25537, 42.77001], [20.26604, 42.77829], [20.26345, 42.78885], [20.26277, 42.80417], [20.25833, 42.80482], [20.25236, 42.81074], [20.25517, 42.81448], [20.2618, 42.81496], [20.27376, 42.81994], [20.27596, 42.82178], [20.27516, 42.8255], [20.2806, 42.83037], [20.28541, 42.82617], [20.29239, 42.82528], [20.29387, 42.82552], [20.29801, 42.8362], [20.31556, 42.83604], [20.31664, 42.82913], [20.32009, 42.82621], [20.32782, 42.83338], [20.33509, 42.83586], [20.33996, 42.83619], [20.34355, 42.83313], [20.35293, 42.83338]]]}}, {"type": "Feature", "properties": {"kind": "border"}, "geometry": {"type": "LineString", "coordinates": [[20.35293, 42.83338], [20.35185, 42.84063], [20.34801, 42.84646], [20.34864, 42.85604], [20.34208, 42.8692], [20.34602, 42.8774], [20.34494, 42.88816], [20.35003, 42.89596], [20.34557, 42.91122], [20.33631, 42.9077], [20.32947, 42.91374], [20.3258, 42.91238], [20.3222, 42.91603], [20.3203, 42.9149], [20.3163, 42.91719], [20.31022, 42.91743], [20.31072, 42.92101], [20.31245, 42.92166], [20.31129, 42.9234], [20.29879, 42.92187], [20.28745, 42.92759], [20.28404, 42.92728], [20.28348, 42.93157], [20.27828, 42.93244], [20.27767, 42.93529], [20.26994, 42.9317], [20.25153, 42.94015], [20.23904, 42.94059], [20.23277, 42.9448], [20.2291, 42.94441], [20.21021, 42.95837], [20.20672, 42.95923], [20.20114, 42.95738], [20.18853, 42.96023], [20.17391, 42.9723], [20.15891, 42.9755], [20.15337, 42.97437], [20.15149, 42.98036], [20.15306, 42.98508], [20.14883, 42.98889], [20.14705, 42.98914], [20.13741, 42.97926], [20.13636, 42.97417], [20.13127, 42.96912], [20.12167, 42.96373], [20.11752, 42.96541], [20.11105, 42.97166], [20.10799, 42.97128], [20.10285, 42.97446], [20.10224, 42.98177], [20.08718, 42.99236], [20.08672, 42.99557], [20.08264, 42.99352], [20.08002, 42.99401], [20.07848, 42.99723], [20.0738, 42.99647], [20.0658, 43.00129], [20.06394, 43.00683], [20.05413, 43.00946], [20.05636, 43.01765], [20.04933, 43.02199], [20.04466, 43.02862], [20.02868, 43.03734], [20.01218, 43.04253], [19.99215, 43.05181], [19.98402, 43.06609], [19.97506, 43.07447], [19.96745, 43.08719], [19.96959, 43.08832], [19.97352, 43.10367], [19.96986, 43.11285], [19.96951, 43.11144], [19.96275, 43.11108], [19.95576, 43.10802], [19.94995, 43.10248], [19.93729, 43.10068], [19.93011, 43.09604], [19.92198, 43.09591], [19.91788, 43.09151], [19.91664, 43.08596], [19.90687, 43.09095], [19.90296, 43.09925], [19.88753, 43.09736], [19.88594, 43.10173], [19.8813, 43.10274], [19.88293, 43.10509], [19.87802, 43.10975], [19.86992, 43.11312], [19.86129, 43.11034], [19.86072, 43.1062], [19.85039, 43.10192], [19.85162, 43.10027], [19.84519, 43.09986], [19.83869, 43.09404], [19.83383, 43.09612], [19.83631, 43.09997], [19.83318, 43.10729], [19.84035, 43.11195], [19.8371, 43.11565], [19.82596, 43.1181], [19.82011, 43.11562], [19.81145, 43.11548], [19.80672, 43.11735], [19.8074, 43.12099], [19.805, 43.12233], [19.79294, 43.12294], [19.78784, 43.12605], [19.78569, 43.12911], [19.78708, 43.13374], [19.78311, 43.13449], [19.78079, 43.13796], [19.77687, 43.1379], [19.78105, 43.14344], [19.77928, 43.14637], [19.77966, 43.15632], [19.77313, 43.16077], [19.77026, 43.16553], [19.76468, 43.16354], [19.75962, 43.16453], [19.75582, 43.16276], [19.7555, 43.16052], [19.74085, 43.15904], [19.73643, 43.16213], [19.73772, 43.16385], [19.73463, 43.16627], [19.73359, 43.17121], [19.70367, 43.17064], [19.68493, 43.168], [19.68009, 43.17339], [19.67878, 43.17888], [19.6709, 43.18383], [19.66355, 43.18645], [19.65979, 43.18514], [19.64066, 43.18898], [19.63691, 43.20038], [19.637, 43.20373], [19.63985, 43.20715], [19.63358, 43.21069], [19.62633, 43.22218], [19.61921, 43.22583], [19.61812, 43.23054], [19.60051, 43.23492], [19.59086, 43.23938], [19.57348, 43.2405], [19.56621, 43.243], [19.56195, 43.24195], [19.54485, 43.24756], [19.54463, 43.25281], [19.54134, 43.26018], [19.54284, 43.26094], [19.53355, 43.27131], [19.52957, 43.2731], [19.52725, 43.27934], [19.52744, 43.28501], [19.53766, 43.30422], [19.53556, 43.3091], [19.53263, 43.30959], [19.52804, 43.31709], [19.52137, 43.32094], [19.51708, 43.32031], [19.48524, 43.32759], [19.48201, 43.33357], [19.46113, 43.34481], [19.46327, 43.35232], [19.46012, 43.35448], [19.46188, 43.35906], [19.4574, 43.36513], [19.45047, 43.36722], [19.451, 43.38201], [19.44855, 43.38811], [19.43935, 43.3918], [19.43748, 43.39066], [19.42783, 43.39315], [19.42461, 43.39173], [19.419, 43.394], [19.41036, 43.39309], [19.40053, 43.39811], [19.39971, 43.40022], [19.3935, 43.40104], [19.3882, 43.40649], [19.39002, 43.40789], [19.38885, 43.4094], [19.38239, 43.41269], [19.3651, 43.4134], [19.36044, 43.41133], [19.34934, 43.41572], [19.33829, 43.42853], [19.33385, 43.43475], [19.33427, 43.4366], [19.32184, 43.44133], [19.30804, 43.44037], [19.29841, 43.44448], [19.28817, 43.4458], [19.28115, 43.44944], [19.27648, 43.45435], [19.27251, 43.45412], [19.26366, 43.45924], [19.25342, 43.46139], [19.24724, 43.46884], [19.23548, 43.47398], [19.22143, 43.48317], [19.22587, 43.48551], [19.22244, 43.49124], [19.22556, 43.49551], [19.22246, 43.50312], [19.22515, 43.5051], [19.2275, 43.51222], [19.22263, 43.52715], [19.25083, 43.52939], [19.24686, 43.53972], [19.24621, 43.54807], [19.24887, 43.55578], [19.24695, 43.55773], [19.25194, 43.56261], [19.25042, 43.5662], [19.25385, 43.57549], [19.25086, 43.58378], [19.24653, 43.58822], [19.24759, 43.59029], [19.24588, 43.5927], [19.26269, 43.58939], [19.26594, 43.59396], [19.2727, 43.59655], [19.26853, 43.60194], [19.25551, 43.59792], [19.26356, 43.60683], [19.27303, 43.5967], [19.28873, 43.59548], [19.29113, 43.60014], [19.30395, 43.58984], [19.3139, 43.58797], [19.33116, 43.59065], [19.33679, 43.58852], [19.35663, 43.60566], [19.36178, 43.60554], [19.36248, 43.60783], [19.36936, 43.61069], [19.37087, 43.60527], [19.38187, 43.60162], [19.38256, 43.59442], [19.3848, 43.59148], [19.39563, 43.59172], [19.40193, 43.58759], [19.39953, 43.58129], [19.38786, 43.57725], [19.39241, 43.5737], [19.40018, 43.57813], [19.40521, 43.57726], [19.40252, 43.57032], [19.40842, 43.56978], [19.42227, 43.57532], [19.41811, 43.5783], [19.43712, 43.58111], [19.44255, 43.58004], [19.44607, 43.58187], [19.45173, 43.57894], [19.47358, 43.57628], [19.48073, 43.57172], [19.49737, 43.5775], [19.51105, 43.58615], [19.50196, 43.59096], [19.4971, 43.59807], [19.49182, 43.59643], [19.49127, 43.6003], [19.49951, 43.61606], [19.4917, 43.62002], [19.49233, 43.62554], [19.48808, 43.63245], [19.49876, 43.63894], [19.50052, 43.63337], [19.50732, 43.63331], [19.50692, 43.62815], [19.51064, 43.62822], [19.51177, 43.63524], [19.51501, 43.64047], [19.51234, 43.64425], [19.51529, 43.64685], [19.52648, 43.64973], [19.53178, 43.66777], [19.52813, 43.67068], [19.51706, 43.68952], [19.51829, 43.69604], [19.51454, 43.70083], [19.51899, 43.70598], [19.51894, 43.71435], [19.51333, 43.71553], [19.50845, 43.72062], [19.48094, 43.73365], [19.47737, 43.74135], [19.47694, 43.7474], [19.4673, 43.75383], [19.46539, 43.76448], [19.45826, 43.76714], [19.45476, 43.77125], [19.44731, 43.77522], [19.43126, 43.77685], [19.43144, 43.78399], [19.42106, 43.79678], [19.4114, 43.79393], [19.40571, 43.79748], [19.39444, 43.79839], [19.39181, 43.80878], [19.37204, 43.82459], [19.37129, 43.82714], [19.3747, 43.83445], [19.36499, 43.83725], [19.34612, 43.85295], [19.33795, 43.86324], [19.3358, 43.86965], [19.32644, 43.87825], [19.31561, 43.88309], [19.31399, 43.88649], [19.3152, 43.88969], [19.30922, 43.89471], [19.31046, 43.89767], [19.29726, 43.90952], [19.29418, 43.91959], [19.28377, 43.92703], [19.28397, 43.931], [19.27181, 43.9385], [19.26713, 43.94676], [19.258, 43.94887], [19.25159, 43.95373], [19.2507, 43.95486], [19.25497, 43.95952], [19.25508, 43.96294], [19.25019, 43.97214], [19.23949, 43.98221], [19.23646, 43.98806], [19.23565, 44.0118], [19.2407, 44.01466], [19.24748, 44.01421], [19.267, 44.0004], [19.28399, 43.99724], [19.3045, 43.9975], [19.31567, 43.99336], [19.33426, 43.98259], [19.35662, 43.98129], [19.3584, 43.97997], [19.35747, 43.97567], [19.36201, 43.97203], [19.37543, 43.96664], [19.3788, 43.96251], [19.38866, 43.96026], [19.39574, 43.96157], [19.39938, 43.96683], [19.40361, 43.96864], [19.40753, 43.96815], [19.41986, 43.95999], [19.43268, 43.95789], [19.44829, 43.95958], [19.48649, 43.95552], [19.52372, 43.95582], [19.52904, 43.95734], [19.5396, 43.97399], [19.55046, 43.98013], [19.56652, 43.98424], [19.56777, 43.98887], [19.56371, 43.99537], [19.56389, 43.99908], [19.58832, 44.00313], [19.59833, 44.01], [19.61648, 44.01314], [19.62026, 44.01557], [19.62254, 44.02117], [19.61384, 44.035], [19.62373, 44.04985], [19.62247, 44.05251], [19.61795, 44.05395], [19.61178, 44.05001], [19.60445, 44.05068], [19.60043, 44.06932], [19.5892, 44.0721], [19.58211, 44.06756], [19.58288, 44.05322], [19.58134, 44.04818], [19.57848, 44.04617], [19.57384, 44.04666], [19.56886, 44.05088], [19.56563, 44.0615], [19.55793, 44.06968], [19.54642, 44.07453], [19.51125, 44.08129], [19.4959, 44.10069], [19.49316, 44.11521], [19.47213, 44.11845], [19.46974, 44.12139], [19.4701, 44.12697], [19.48208, 44.13838], [19.48339, 44.14182], [19.48173, 44.1459], [19.47415, 44.1498], [19.46653, 44.1488], [19.45499, 44.14087], [19.44879, 44.13164], [19.44388, 44.13172], [19.43293, 44.13553], [19.41994, 44.14408], [19.40827, 44.16908], [19.39693, 44.17129], [19.38135, 44.17943], [19.3671, 44.1808], [19.35907, 44.18431], [19.35539, 44.19955], [19.35982, 44.20742], [19.35488, 44.21347], [19.34937, 44.21485], [19.34352, 44.21912], [19.34287, 44.22281], [19.34878, 44.23175], [19.34223, 44.24301], [19.32995, 44.25052], [19.32786, 44.25812], [19.32796, 44.26881], [19.32517, 44.27125], [19.3157, 44.27323], [19.29809, 44.26939], [19.27931, 44.2767], [19.26951, 44.26984], [19.25139, 44.26266], [19.23819, 44.26187], [19.22928, 44.26397], [19.2228, 44.26902], [19.21725, 44.28711], [19.20964, 44.29115], [19.19848, 44.29121], [19.18951, 44.28383], [19.17985, 44.27982], [19.16535, 44.28458], [19.16156, 44.28852], [19.15876, 44.30039], [19.15592, 44.30345], [19.14751, 44.3098], [19.1368, 44.31312], [19.13152, 44.31809], [19.12968, 44.32943], [19.13669, 44.33543], [19.13644, 44.33901], [19.12283, 44.34082], [19.1141, 44.3446], [19.10895, 44.35681], [19.11116, 44.36021], [19.11949, 44.36374], [19.11974, 44.36739], [19.11246, 44.36947], [19.10652, 44.36681], [19.10276, 44.37125], [19.10374, 44.37811], [19.10704, 44.3831], [19.10707, 44.39342], [19.10969, 44.397], [19.11837, 44.40293], [19.14266, 44.41122], [19.14707, 44.41528], [19.14923, 44.43705], [19.14407, 44.4457], [19.14486, 44.45064], [19.13627, 44.45659], [19.14071, 44.47113], [19.13429, 44.48025], [19.13262, 44.49086], [19.12305, 44.50054], [19.12843, 44.51992], [19.13137, 44.52284], [19.144, 44.52692], [19.15161, 44.52394], [19.15539, 44.52558], [19.16349, 44.52343], [19.16315, 44.52211], [19.17101, 44.52631], [19.17553, 44.53181], [19.17668, 44.53645], [19.19016, 44.54678], [19.19205, 44.55181], [19.19204, 44.55503], [19.1822, 44.56172], [19.18346, 44.56268], [19.18174, 44.56509], [19.18232, 44.56908], [19.18579, 44.57613], [19.19093, 44.57695], [19.19897, 44.57482], [19.20212, 44.5775], [19.20631, 44.57691], [19.2067, 44.58345], [19.21993, 44.59434], [19.222, 44.60324], [19.22721, 44.61081], [19.22285, 44.61492], [19.2157, 44.61664], [19.21494, 44.61938], [19.23641, 44.623], [19.25076, 44.63385], [19.25716, 44.63479], [19.26634, 44.64808], [19.25896, 44.65528], [19.2592, 44.6576], [19.26384, 44.66041], [19.27262, 44.65722], [19.27956, 44.65876], [19.28045, 44.66179], [19.2827, 44.66207], [19.27621, 44.66802], [19.27917, 44.67135], [19.28109, 44.67828], [19.28912, 44.67948], [19.28905, 44.6816], [19.29127, 44.6825], [19.28721, 44.6874], [19.28855, 44.69089], [19.29071, 44.69211], [19.2948, 44.68824], [19.29878, 44.68725], [19.3038, 44.68908], [19.29996, 44.69521], [19.30899, 44.70573], [19.30674, 44.70907], [19.3024, 44.70862], [19.30052, 44.71335], [19.31082, 44.71609], [19.31405, 44.7208], [19.31257, 44.72333], [19.30329, 44.72748], [19.30174, 44.73093], [19.31206, 44.74111], [19.31846, 44.73969], [19.3264, 44.74199], [19.32768, 44.74645], [19.33063, 44.74797], [19.32985, 44.74982], [19.31888, 44.75018], [19.31499, 44.75292], [19.31612, 44.75652], [19.32426, 44.75777], [19.32384, 44.76377], [19.30742, 44.76406], [19.30122, 44.76918], [19.30503, 44.77334], [19.32199, 44.77455], [19.32581, 44.77831], [19.32432, 44.78414], [19.31797, 44.78555], [19.31423, 44.78123], [19.31075, 44.78045], [19.3056, 44.78397], [19.29728, 44.78233], [19.29457, 44.7858], [19.30181, 44.78969], [19.30465, 44.79432], [19.31447, 44.79394], [19.31733, 44.79561], [19.31698, 44.79974], [19.31129, 44.80242], [19.31012, 44.80548], [19.31295, 44.81253], [19.3241, 44.81279], [19.3241, 44.81481], [19.31726, 44.81909], [19.31788, 44.82164], [19.32681, 44.82284], [19.33337, 44.81777], [19.33585, 44.81944], [19.33361, 44.82383], [19.33568, 44.82805], [19.35319, 44.8264], [19.35549, 44.83461], [19.34548, 44.83971], [19.34738, 44.84707], [19.34596, 44.8525], [19.35194, 44.85862], [19.36495, 44.85444], [19.36747, 44.85612], [19.35969, 44.86658], [19.36489, 44.87416], [19.37156, 44.87823], [19.36927, 44.88052], [19.35246, 44.88583], [19.35122, 44.8891], [19.34603, 44.88953], [19.33532, 44.89542], [19.32241, 44.89939], [19.314, 44.90605], [19.29959, 44.90943], [19.28953, 44.90889], [19.27905, 44.90431], [19.27124, 44.90607], [19.25924, 44.91258], [19.25116, 44.91334], [19.23216, 44.9038], [19.2237, 44.89737], [19.2139, 44.89635], [19.20839, 44.89912], [19.20402, 44.90962], [19.19663, 44.91816], [19.18756, 44.92124], [19.17706, 44.92173], [19.16763, 44.91878], [19.15471, 44.90782], [19.14662, 44.90347], [19.12883, 44.89871], [19.11792, 44.88625], [19.08844, 44.8796], [19.07723, 44.86758], [19.0703, 44.86315], [19.0609, 44.86044], [19.02141, 44.8554], [19.00323, 44.88486], [18.99964, 44.88534], [18.99274, 44.89398], [18.99135, 44.90295], [18.98899, 44.90589], [18.99607, 44.91152], [18.99763, 44.91526], [19.01434, 44.92113], [19.03224, 44.92241], [19.04497, 44.91199], [19.0686, 44.90121], [19.07399, 44.90521], [19.08181, 44.90617], [19.08707, 44.91045], [19.08047, 44.9134], [19.08428, 44.91684], [19.08745, 44.9164], [19.08821, 44.91817], [19.08419, 44.91968], [19.08722, 44.92548], [19.10086, 44.92972], [19.10572, 44.93328], [19.11547, 44.93407], [19.12318, 44.93833], [19.14309, 44.94115], [19.14288, 44.94689], [19.15606, 44.95302], [19.154, 44.95477], [19.1542, 44.95758], [19.14682, 44.95737], [19.14746, 44.9755], [19.1387, 44.98067], [19.11923, 44.97592], [19.1135, 44.97074], [19.10973, 44.96987], [19.09264, 44.97114], [19.08652, 44.97436], [19.07498, 44.97129], [19.05196, 44.97719], [19.06113, 44.98291], [19.08004, 44.98762], [19.08621, 44.99373], [19.09272, 44.99513], [19.09613, 45.00534], [19.10276, 45.01086], [19.09955, 45.01443], [19.09735, 45.02452], [19.09911, 45.03296], [19.0957, 45.0339], [19.09439, 45.03787], [19.10257, 45.04409], [19.10161, 45.04643], [19.10582, 45.05143], [19.09523, 45.05854], [19.10594, 45.07922], [19.0927, 45.09088], [19.09162, 45.09299], [19.0944, 45.09772], [19.09336, 45.10153], [19.08788, 45.10701], [19.08387, 45.10737], [19.08202, 45.11002], [19.08443, 45.11134], [19.07665, 45.11387], [19.07785, 45.12773], [19.08143, 45.13205], [19.08121, 45.13426], [19.08767, 45.13829], [19.08646, 45.1454], [19.11448, 45.13754], [19.1201, 45.13376], [19.14195, 45.12972], [19.18724, 45.166], [19.19458, 45.17899], [19.16605, 45.18977], [19.16915, 45.19741], [19.17623, 45.2025], [19.17901, 45.20031], [19.19091, 45.20118], [19.21436, 45.18774], [19.22724, 45.18476], [19.23775, 45.17537], [19.24752, 45.17777], [19.25005, 45.17279], [19.27227, 45.17585], [19.27726, 45.17167], [19.28758, 45.17064], [19.2908, 45.17262], [19.2965, 45.17122], [19.29386, 45.17479], [19.29411, 45.17847], [19.28127, 45.1932], [19.28774, 45.19353], [19.28908, 45.1954], [19.28544, 45.1978], [19.28274, 45.20719], [19.28797, 45.20503], [19.31959, 45.20772], [19.32845, 45.18542], [19.33238, 45.1821], [19.32998, 45.17706], [19.34792, 45.17237], [19.34942, 45.16477], [19.35465, 45.16464], [19.35435, 45.16908], [19.36, 45.17017], [19.35888, 45.17282], [19.3628, 45.17336], [19.36374, 45.17552], [19.37226, 45.17054], [19.38819, 45.17319], [19.41857, 45.1658], [19.42518, 45.16768], [19.4357, 45.17314], [19.42797, 45.18755], [19.4348, 45.19007], [19.43542, 45.19317], [19.44727, 45.19591], [19.42744, 45.2175], [19.4225, 45.22513], [19.4207, 45.23343], [19.35405, 45.2314], [19.28891, 45.23642], [19.25498, 45.24354], [19.18002, 45.26849], [19.16837, 45.27401], [19.14195, 45.28125], [19.11424, 45.29284], [19.10369, 45.2998], [19.09746, 45.31349], [19.09748, 45.32718], [19.09102, 45.33577], [19.07309, 45.34167], [19.02759, 45.34427], [18.97637, 45.37229], [18.97093, 45.37812], [18.96951, 45.38276], [18.97089, 45.38933], [18.97529, 45.39373], [18.98407, 45.39851], [19.02046, 45.40194], [19.02728, 45.4068], [19.03024, 45.41208], [19.02976, 45.41823], [19.0247, 45.42393], [18.99659, 45.43999], [18.98974, 45.44788], [18.98864, 45.45443], [18.99159, 45.46149], [18.99179, 45.47957], [18.99915, 45.49288], [19.00597, 45.49715], [19.01631, 45.49469], [19.03005, 45.48798], [19.0436, 45.48512], [19.08248, 45.48784], [19.09178, 45.49238], [19.09885, 45.49989], [19.10112, 45.50429], [19.10004, 45.51438], [19.09581, 45.51918], [19.06996, 45.52999], [19.03385, 45.53454], [19.03048, 45.5381], [19.02641, 45.55293], [19.01835, 45.55727], [19.01131, 45.55718], [19.00444, 45.5519], [18.99763, 45.54296], [18.98801, 45.53784], [18.96181, 45.53284], [18.95155, 45.53287], [18.94288, 45.53532], [18.92707, 45.54384], [18.92343, 45.54977], [18.91761, 45.55446], [18.90948, 45.55522], [18.89498, 45.56025], [18.88812, 45.56831], [18.8903, 45.57538], [18.91196, 45.59326], [18.91459, 45.5975], [18.91416, 45.60137], [18.89946, 45.60789], [18.89782, 45.61146], [18.89984, 45.61694], [18.9322, 45.63037], [18.9398, 45.64281], [18.95943, 45.65566], [18.96576, 45.66212], [18.96678, 45.66969], [18.9497, 45.68148], [18.92294, 45.69181], [18.90616, 45.70762], [18.90165, 45.71862], [18.89792, 45.74089], [18.89247, 45.75574], [18.88849, 45.77585], [18.88106, 45.78223], [18.85754, 45.78834], [18.85027, 45.79543], [18.84697, 45.80751], [18.8489, 45.8182], [18.85553, 45.83188], [18.85739, 45.8441], [18.85631, 45.85623], [18.85169, 45.86227], [18.8372, 45.86598], [18.83139, 45.87046], [18.82871, 45.87746], [18.8281, 45.89579], [18.82346, 45.90309], [18.81499, 45.90941], [18.82164, 45.91465], [18.82756, 45.90479], [18.86822, 45.91125], [18.86463, 45.92075], [18.87122, 45.9162], [18.87915, 45.91644], [18.8865, 45.9214], [18.88992, 45.92138], [18.906, 45.93527], [18.96202, 45.92587], [18.98797, 45.9322], [18.9947, 45.92388], [19.00885, 45.9233], [18.99788, 45.94621], [19.00581, 45.95871], [19.01878, 45.96314], [19.03269, 45.96465], [19.055, 45.9655], [19.07956, 45.96353], [19.06566, 46.00004], [19.10459, 46.04], [19.13379, 46.03711], [19.14721, 46.00801], [19.14569, 46.0014], [19.14774, 45.99612], [19.20492, 45.99268], [19.19959, 45.99816], [19.23271, 45.99936], [19.23666, 45.99506], [19.28535, 45.99676], [19.29654, 45.9878], [19.30271, 45.99157], [19.2816, 46.01452], [19.36416, 46.05217], [19.38018, 46.03581], [19.39507, 46.04197], [19.41544, 46.04573], [19.42301, 46.05494], [19.43825, 46.06618], [19.46653, 46.08165], [19.46693, 46.08901], [19.46442, 46.09527], [19.48035, 46.10177], [19.48184, 46.1048], [19.48577, 46.10349], [19.50897, 46.11072], [19.52707, 46.12094], [19.50808, 46.1336], [19.50944, 46.13735], [19.50245, 46.14209], [19.51676, 46.15174], [19.52656, 46.14769], [19.53448, 46.15188], [19.56044, 46.1663], [19.55863, 46.16802], [19.56317, 46.16976], [19.55983, 46.17393], [19.56763, 46.17872], [19.6316, 46.16924], [19.66154, 46.19005], [19.66958, 46.18402], [19.67028, 46.18656], [19.68254, 46.17974], [19.68652, 46.18011], [19.6863, 46.1818], [19.69645, 46.18745], [19.69983, 46.18746], [19.71767, 46.17598], [19.71794, 46.17158], [19.72706, 46.1681], [19.73403, 46.16982], [19.74104, 46.16565], [19.75849, 46.14787], [19.77178, 46.14415], [19.78069, 46.14453], [19.7915, 46.1393], [19.79731, 46.13946], [19.80173, 46.13495], [19.81783, 46.12779], [19.84424, 46.1414], [19.85319, 46.14979], [19.87337, 46.15136], [19.91488, 46.16398], [19.93514, 46.17619], [20.01579, 46.17678], [20.02298, 46.1733], [20.03178, 46.14793], [20.03902, 46.14444], [20.05689, 46.14797], [20.06168, 46.14687], [20.06374, 46.14367], [20.07451, 46.15676], [20.09581, 46.17724], [20.10601, 46.17472], [20.10649, 46.17332], [20.10378, 46.17168], [20.10469, 46.16518], [20.10686, 46.16265], [20.13236, 46.15017], [20.13703, 46.14729], [20.13729, 46.14423], [20.14669, 46.14483], [20.16922, 46.15277], [20.18182, 46.16005], [20.20804, 46.14394], [20.21033, 46.13547], [20.22982, 46.12907], [20.23318, 46.12381], [20.24821, 46.12983], [20.25156, 46.12646], [20.24955, 46.11987], [20.25492, 46.1158], [20.26427, 46.12637], [20.26531, 46.12509], [20.26201, 46.12164], [20.26367, 46.11835], [20.27077, 46.11611], [20.28289, 46.11761], [20.2752, 46.11252], [20.26711, 46.11224], [20.26483, 46.10848], [20.27318, 46.09828], [20.30227, 46.08662], [20.30373, 46.08222], [20.31128, 46.07364], [20.30928, 46.0721], [20.34607, 46.04738], [20.34342, 46.04719], [20.33931, 46.04142], [20.34062, 46.03627], [20.35771, 46.00585], [20.35239, 46.0039], [20.35312, 45.99963], [20.34838, 45.99958], [20.40543, 45.96524], [20.44731, 45.97025], [20.48293, 45.95343], [20.50177, 45.91066], [20.51582, 45.89211], [20.54959, 45.89993], [20.54652, 45.90592], [20.5693, 45.91015], [20.57874, 45.88497], [20.57459, 45.88399], [20.57677, 45.87933], [20.57521, 45.87876], [20.58146, 45.86937], [20.59443, 45.87171], [20.59889, 45.86172], [20.61154, 45.86407], [20.66062, 45.82919], [20.65092, 45.8118], [20.65504, 45.80745], [20.65718, 45.80811], [20.66284, 45.79412], [20.68143, 45.79731], [20.6946, 45.76696], [20.69071, 45.7663], [20.69293, 45.75985], [20.69684, 45.76051], [20.70065, 45.75056], [20.7075, 45.75131], [20.71815, 45.7494], [20.71795, 45.75198], [20.73272, 45.75588], [20.77403, 45.75452], [20.78356, 45.78588], [20.82307, 45.77509], [20.81737, 45.75176], [20.81594, 45.74925], [20.80815, 45.74839], [20.80266, 45.73775], [20.80104, 45.70197], [20.79883, 45.70213], [20.80222, 45.69981], [20.79617, 45.68703], [20.80299, 45.68201], [20.80003, 45.67195], [20.80499, 45.65723], [20.78888, 45.64556], [20.7793, 45.62255], [20.76579, 45.61262], [20.77201, 45.58285], [20.79532, 45.58764], [20.81361, 45.56811], [20.81133, 45.56582], [20.82321, 45.55188], [20.81961, 45.55038], [20.83257, 45.53589], [20.82789, 45.53403], [20.80709, 45.51584], [20.76882, 45.50023], [20.77695, 45.49059], [20.77104, 45.48806], [20.77105, 45.47992], [20.83331, 45.47996], [20.86188, 45.4652], [20.86639, 45.46518], [20.87104, 45.46022], [20.87057, 45.45589], [20.87887, 45.45452], [20.87773, 45.4499], [20.88107, 45.44617], [20.87221, 45.44605], [20.87485, 45.44291], [20.87485, 45.43815], [20.86585, 45.43596], [20.86953, 45.43272], [20.86462, 45.43182], [20.87512, 45.4259], [20.90043, 45.41689], [20.92026, 45.41724], [20.92398, 45.40725], [20.92786, 45.40498], [20.92811, 45.40206], [20.93139, 45.40202], [20.93558, 45.39276], [20.93006, 45.39233], [20.93122, 45.38676], [20.94198, 45.38645], [20.94596, 45.3837], [20.94838, 45.38559], [20.95088, 45.37483], [20.96032, 45.36676], [20.98172, 45.35729], [20.99606, 45.34328], [21.00989, 45.34128], [21.01657, 45.32463], [21.06337, 45.33193], [21.0612, 45.31586], [21.07094, 45.31401], [21.08098, 45.31781], [21.09653, 45.2959], [21.12797, 45.30467], [21.14455, 45.30485], [21.1542, 45.31236], [21.1496, 45.31594], [21.16202, 45.3251], [21.16635, 45.31967], [21.17594, 45.32516], [21.18387, 45.32073], [21.18064, 45.31887], [21.18394, 45.31604], [21.17993, 45.31257], [21.18944, 45.29452], [21.19133, 45.28678], [21.20872, 45.27527], [21.20284, 45.26544], [21.21898, 45.25058], [21.22354, 45.25294], [21.24919, 45.2438], [21.27475, 45.22968], [21.29226, 45.24241], [21.32001, 45.23759], [21.32078, 45.24019], [21.3262, 45.2396], [21.32528, 45.23632], [21.33275, 45.23455], [21.33354, 45.23639], [21.33901, 45.23562], [21.33795, 45.23329], [21.3439, 45.23182], [21.36002, 45.2221], [21.36963, 45.22607], [21.39535, 45.21878], [21.40343, 45.22927], [21.41084, 45.22473], [21.41227, 45.22102], [21.43117, 45.2128], [21.4388, 45.2028], [21.4831, 45.19206], [21.49312, 45.17319], [21.50719, 45.17037], [21.51482, 45.17115], [21.52352, 45.15933], [21.52883, 45.14732], [21.52741, 45.13788], [21.49579, 45.12454], [21.48714, 45.12536], [21.47846, 45.1212], [21.4778, 45.11698], [21.46969, 45.10526], [21.47499, 45.0991], [21.48114, 45.09542], [21.48338, 45.09129], [21.4751, 45.08658], [21.46492, 45.07482], [21.4594, 45.07198], [21.4552, 45.06321], [21.45058, 45.06111], [21.45076, 45.0589], [21.44702, 45.05576], [21.44732, 45.05278], [21.45076, 45.05133], [21.45605, 45.04041], [21.42628, 45.03532], [21.42295, 45.03238], [21.42078, 45.0365], [21.40566, 45.03694], [21.40094, 45.03021], [21.39676, 45.03129], [21.39806, 45.02948], [21.39402, 45.03], [21.39515, 45.02847], [21.39297, 45.02713], [21.38856, 45.02925], [21.3824, 45.02707], [21.38258, 45.02557], [21.37951, 45.02843], [21.37686, 45.02669], [21.37469, 45.02826], [21.36023, 45.02044], [21.377, 45.00672], [21.37825, 45.00819], [21.38682, 45.00442], [21.38295, 45.00185], [21.38843, 44.99806], [21.40653, 44.99239], [21.40509, 44.98979], [21.41465, 44.98676], [21.40672, 44.97852], [21.43838, 44.96053], [21.44558, 44.96215], [21.46925, 44.95843], [21.51974, 44.93797], [21.5275, 44.9393], [21.54669, 44.93052], [21.54715, 44.92754], [21.55271, 44.92391], [21.5527, 44.92084], [21.5499, 44.9186], [21.55824, 44.90662], [21.5568, 44.90407], [21.56013, 44.889], [21.53263, 44.8825], [21.5107, 44.88004], [21.499, 44.87245], [21.4884, 44.87153], [21.48528, 44.86816], [21.47944, 44.87086], [21.47583, 44.86844], [21.47105, 44.87121], [21.46317, 44.86743], [21.45452, 44.87348], [21.45219, 44.87338], [21.45055, 44.87007], [21.44685, 44.87399], [21.44108, 44.8699], [21.44432, 44.8677], [21.44226, 44.86644], [21.43559, 44.87096], [21.43174, 44.86813], [21.41807, 44.87327], [21.41305, 44.86908], [21.4071, 44.86941], [21.40588, 44.86633], [21.40011, 44.86815], [21.39588, 44.86655], [21.38794, 44.86976], [21.38408, 44.86535], [21.3728, 44.86683], [21.36706, 44.86449], [21.36064, 44.85223], [21.35763, 44.85004], [21.3599, 44.848], [21.35747, 44.84646], [21.35808, 44.8443], [21.36192, 44.84365], [21.36163, 44.84064], [21.35451, 44.84168], [21.35307, 44.84032], [21.35703, 44.83556], [21.36028, 44.83659], [21.35918, 44.83417], [21.35564, 44.83288], [21.3565, 44.83168], [21.36277, 44.8324], [21.36417, 44.82925], [21.3563, 44.8272], [21.35847, 44.82162], [21.37286, 44.81669], [21.38229, 44.80921], [21.38788, 44.79767], [21.39046, 44.78582], [21.39598, 44.77965], [21.40336, 44.77653], [21.42089, 44.77339], [21.45881, 44.77694], [21.50426, 44.77113], [21.53696, 44.77255], [21.56304, 44.76741], [21.58613, 44.75935], [21.59154, 44.75558], [21.60103, 44.74361], [21.61198, 44.72499], [21.61546, 44.71386], [21.61097, 44.70127], [21.61143, 44.68777], [21.61817, 44.67148], [21.62413, 44.66545], [21.63709, 44.65973], [21.68907, 44.66527], [21.69803, 44.66314], [21.7162, 44.65444], [21.72878, 44.65349], [21.79339, 44.66386], [21.81347, 44.65075], [21.82538, 44.6506], [21.84198, 44.65432], [21.89302, 44.64499], [21.91742, 44.64747], [21.95072, 44.63515], [21.99289, 44.63274], [21.99924, 44.62765], [22.00413, 44.60825], [22.02147, 44.59619], [22.02531, 44.59095], [22.0283, 44.58306], [22.02786, 44.57006], [22.02562, 44.56424], [22.03719, 44.54188], [22.05751, 44.53232], [22.0707, 44.5234], [22.07708, 44.5129], [22.07919, 44.50512], [22.08405, 44.4999], [22.0997, 44.49245], [22.12513, 44.47561], [22.13664, 44.47082], [22.16109, 44.47218], [22.17746, 44.47823], [22.18708, 44.48498], [22.19126, 44.49282], [22.18981, 44.49805], [22.19369, 44.50792], [22.20592, 44.52132], [22.23024, 44.56137], [22.26426, 44.59577], [22.27166, 44.61109], [22.27464, 44.62589], [22.30027, 44.63901], [22.30245, 44.64445], [22.3024, 44.65112], [22.30843, 44.65869], [22.334, 44.67613], [22.36623, 44.67224], [22.37947, 44.67497], [22.39516, 44.68205], [22.40423, 44.68861], [22.41811, 44.70321], [22.42873, 44.70944], [22.44205, 44.71006], [22.46143, 44.71523], [22.46864, 44.71441], [22.48341, 44.70821], [22.49056, 44.70068], [22.50538, 44.69281], [22.51614, 44.68026], [22.53685, 44.66667], [22.5583, 44.64916], [22.56287, 44.6475], [22.56456, 44.64091], [22.57066, 44.63643], [22.62149, 44.61464], [22.63477, 44.61383], [22.66962, 44.61913], [22.67632, 44.61828], [22.67866, 44.6166], [22.67995, 44.61124], [22.68566, 44.60707], [22.69489, 44.60365], [22.70598, 44.60323], [22.71282, 44.59882], [22.75439, 44.56503], [22.7622, 44.55333], [22.76385, 44.54113], [22.75831, 44.53679], [22.71114, 44.52004], [22.69557, 44.51663], [22.685, 44.51969], [22.6411, 44.54512], [22.63081, 44.54738], [22.62741, 44.55044], [22.60804, 44.5527], [22.59008, 44.55091], [22.5769, 44.54592], [22.56428, 44.53556], [22.55983, 44.51568], [22.56069, 44.50431], [22.55666, 44.49721], [22.55648, 44.49039], [22.54824, 44.48125], [22.54299, 44.47874], [22.53642, 44.47841], [22.52142, 44.47185], [22.49788, 44.47748], [22.47039, 44.48043], [22.46277, 44.4779], [22.45817, 44.47184], [22.45741, 44.46747], [22.46011, 44.45716], [22.46728, 44.44103], [22.50077, 44.41865], [22.49884, 44.40397], [22.50329, 44.38119], [22.51548, 44.36259], [22.52395, 44.34066], [22.52721, 44.3364], [22.54613, 44.32403], [22.55787, 44.309], [22.56358, 44.30553], [22.57378, 44.30185], [22.58637, 44.30094], [22.61505, 44.29348], [22.65012, 44.29183], [22.67182, 44.28362], [22.67925, 44.27814], [22.6834, 44.27162], [22.68514, 44.26552], [22.68442, 44.25099], [22.6721, 44.22888], [22.67236, 44.21933], [22.67599, 44.21622], [22.66916, 44.21339], [22.66787, 44.20987], [22.66923, 44.20725], [22.66546, 44.2079], [22.66428, 44.21323], [22.65464, 44.2049], [22.64433, 44.20871], [22.64746, 44.20393], [22.64523, 44.19781], [22.64187, 44.19287], [22.63677, 44.19054], [22.64237, 44.18824], [22.64311, 44.18585], [22.6371, 44.18173], [22.63271, 44.18457], [22.62888, 44.18336], [22.63579, 44.17854], [22.63616, 44.17603], [22.6339, 44.17397], [22.62824, 44.1748], [22.62682, 44.17341], [22.62797, 44.17165], [22.62525, 44.17081], [22.6212, 44.17389], [22.61868, 44.17294], [22.6166, 44.17101], [22.61634, 44.16622], [22.61303, 44.16559], [22.61734, 44.16115], [22.62217, 44.16284], [22.62322, 44.15867], [22.62849, 44.15797], [22.62621, 44.14733], [22.62037, 44.15068], [22.61029, 44.10666], [22.61299, 44.1017], [22.61975, 44.0978], [22.6186, 44.08656], [22.61983, 44.08265], [22.61549, 44.07914], [22.61824, 44.07522], [22.62459, 44.07287], [22.61881, 44.06795], [22.62126, 44.06339], [22.58185, 44.0621], [22.58064, 44.05407], [22.55971, 44.05756], [22.55449, 44.05358], [22.53488, 44.05222], [22.53058, 44.04829], [22.54195, 44.04214], [22.53781, 44.03819], [22.54349, 44.03365], [22.53877, 44.0258], [22.53233, 44.0251], [22.53106, 44.0208], [22.5275, 44.01973], [22.4954, 44.01823], [22.48459, 44.02038], [22.46781, 44.01501], [22.44216, 44.01656], [22.44118, 44.01019], [22.40947, 44.00421], [22.41201, 43.99985], [22.40913, 43.99726], [22.41729, 43.99236], [22.40868, 43.98709], [22.40978, 43.98442], [22.40804, 43.98159], [22.41217, 43.97986], [22.4108, 43.97498], [22.41322, 43.97211], [22.4107, 43.96173], [22.41136, 43.95474], [22.40627, 43.94789], [22.40885, 43.93963], [22.39315, 43.93137], [22.38836, 43.92672], [22.38872, 43.92278], [22.39348, 43.9164], [22.39239, 43.91314], [22.39449, 43.90964], [22.38954, 43.89563], [22.38868, 43.87889], [22.37955, 43.84748], [22.36599, 43.82537], [22.36061, 43.82324], [22.35715, 43.80953], [22.36063, 43.80674], [22.36239, 43.79949], [22.3671, 43.79541], [22.37015, 43.7879], [22.37381, 43.78478], [22.37741, 43.77519], [22.39525, 43.75927], [22.40245, 43.7589], [22.39824, 43.75033], [22.39987, 43.73796], [22.39424, 43.73036], [22.40218, 43.72351], [22.40481, 43.71698], [22.40403, 43.71269], [22.40684, 43.70797], [22.40601, 43.70038], [22.408, 43.69577], [22.42167, 43.68407], [22.42041, 43.68145], [22.43038, 43.67587], [22.43973, 43.67377], [22.44593, 43.66641], [22.45978, 43.65888], [22.47806, 43.6565], [22.48251, 43.65297], [22.48525, 43.6452], [22.49183, 43.6392], [22.49149, 43.63373], [22.48173, 43.62439], [22.48818, 43.61848], [22.49008, 43.60782], [22.4936, 43.60053], [22.4871, 43.59129], [22.48928, 43.58755], [22.49663, 43.58356], [22.49136, 43.57142], [22.48769, 43.56867], [22.48997, 43.55614], [22.49337, 43.55236], [22.494, 43.54847], [22.4973, 43.54733], [22.50337, 43.54041], [22.50149, 43.52924], [22.50498, 43.5253], [22.50661, 43.51635], [22.51419, 43.51043], [22.51571, 43.50333], [22.52415, 43.49667], [22.5243, 43.48638], [22.53285, 43.47917], [22.53355, 43.47118], [22.55394, 43.46163], [22.57586, 43.46388], [22.58678, 43.45259], [22.59085, 43.44091], [22.59769, 43.43566], [22.62479, 43.42818], [22.63186, 43.42909], [22.63879, 43.43335], [22.66112, 43.42602], [22.65991, 43.42257], [22.66743, 43.40925], [22.66692, 43.40274], [22.67829, 43.39473], [22.69884, 43.39356], [22.72312, 43.39547], [22.73242, 43.38946], [22.74481, 43.38777], [22.75627, 43.38042], [22.76667, 43.37741], [22.76993, 43.37099], [22.76866, 43.36689], [22.76995, 43.36361], [22.78538, 43.3549], [22.79111, 43.34974], [22.79508, 43.34263], [22.80386, 43.33802], [22.81379, 43.33706], [22.82771, 43.32888], [22.83102, 43.31231], [22.83703, 43.30702], [22.83769, 43.30202], [22.84547, 43.29672], [22.84231, 43.2864], [22.84514, 43.28098], [22.84788, 43.27961], [22.84857, 43.27546], [22.8589, 43.27433], [22.86898, 43.2674], [22.87051, 43.25463], [22.88277, 43.24485], [22.88813, 43.23585], [22.89624, 43.23078], [22.89635, 43.22679], [22.90792, 43.22095], [22.92033, 43.21855], [22.92273, 43.21496], [22.93495, 43.20905], [22.9412, 43.20253], [22.95892, 43.20702], [22.98013, 43.2017], [22.98294, 43.20262], [22.99695, 43.19422], [23.00627, 43.19287], [23.00626, 43.18702], [22.9864, 43.16667], [22.99445, 43.16212], [22.99741, 43.15584], [22.9937, 43.15063], [22.99611, 43.13989], [22.99507, 43.13615], [22.98471, 43.12103], [22.98324, 43.11148], [22.95479, 43.09547], [22.95263, 43.09241], [22.93325, 43.0883], [22.91844, 43.08007], [22.91836, 43.07593], [22.90919, 43.05578], [22.89978, 43.04828], [22.8984, 43.03622], [22.86253, 43.02142], [22.84944, 43.00482], [22.82212, 42.99305], [22.78384, 42.98163], [22.78615, 42.97533], [22.78394, 42.97133], [22.78665, 42.96836], [22.78266, 42.96439], [22.78514, 42.95848], [22.78071, 42.95534], [22.78291, 42.95277], [22.78233, 42.95045], [22.77882, 42.95312], [22.77777, 42.95021], [22.77549, 42.95107], [22.77435, 42.94919], [22.76995, 42.94947], [22.76851, 42.94786], [22.77371, 42.93823], [22.77225, 42.93588], [22.77994, 42.93183], [22.7778, 42.92564], [22.77443, 42.91929], [22.7722, 42.91749], [22.7681, 42.91785], [22.76019, 42.91113], [22.76202, 42.90807], [22.75886, 42.90391], [22.75965, 42.90262], [22.753, 42.89921], [22.75436, 42.89463], [22.74465, 42.88615], [22.73571, 42.88492], [22.73012, 42.88864], [22.72081, 42.88498], [22.71377, 42.8869], [22.70524, 42.87938], [22.70168, 42.88433], [22.69728, 42.8843], [22.6956, 42.88356], [22.69555, 42.8787], [22.68144, 42.87219], [22.68228, 42.86837], [22.67824, 42.86552], [22.67532, 42.86631], [22.6728, 42.87354], [22.67365, 42.87597], [22.66727, 42.87681], [22.66113, 42.8818], [22.6564, 42.88302], [22.65286, 42.88323], [22.64031, 42.87797], [22.61943, 42.89605], [22.60373, 42.8919], [22.59639, 42.89426], [22.59137, 42.89043], [22.5841, 42.8922], [22.58003, 42.88337], [22.57272, 42.87562], [22.57382, 42.87366], [22.57212, 42.87146], [22.57543, 42.86291], [22.56395, 42.8703], [22.55372, 42.87239], [22.53547, 42.88213], [22.52798, 42.87653], [22.52057, 42.87577], [22.51547, 42.8686], [22.51755, 42.86446], [22.51498, 42.86339], [22.51758, 42.86175], [22.51573, 42.85689], [22.50718, 42.85059], [22.49891, 42.84899], [22.47453, 42.83156], [22.46964, 42.83061], [22.46493, 42.83369], [22.46119, 42.83068], [22.44642, 42.82487], [22.44154, 42.82535], [22.43966, 42.82329], [22.44089, 42.80575], [22.4488, 42.8024], [22.44955, 42.79574], [22.45591, 42.7931], [22.45908, 42.78686], [22.46002, 42.77771], [22.4763, 42.76723], [22.47605, 42.76302], [22.48491, 42.75111], [22.49943, 42.7438], [22.50135, 42.73964], [22.4962, 42.73299], [22.49656, 42.72263], [22.48603, 42.7214], [22.48269, 42.71478], [22.47559, 42.71009], [22.4711, 42.70025], [22.47216, 42.69511], [22.46724, 42.69137], [22.45844, 42.6895], [22.46036, 42.68375], [22.46964, 42.68198], [22.47597, 42.67578], [22.47267, 42.66693], [22.46792, 42.66362], [22.46646, 42.65952], [22.45868, 42.65505], [22.46148, 42.65253], [22.46146, 42.6484], [22.45387, 42.64644], [22.46761, 42.64076], [22.46488, 42.63252], [22.45836, 42.63119], [22.45863, 42.62214], [22.45566, 42.61749], [22.4527, 42.61625], [22.4514, 42.61213], [22.44978, 42.59516], [22.44055, 42.58856], [22.43902, 42.58158], [22.44055, 42.57798], [22.43782, 42.57215], [22.43901, 42.56588], [22.45158, 42.56694], [22.47102, 42.56194], [22.47732, 42.55387], [22.49217, 42.54625], [22.49894, 42.53548], [22.50632, 42.53289], [22.51358, 42.52703], [22.51946, 42.52807], [22.52427, 42.52524], [22.52915, 42.51902], [22.54744, 42.50726], [22.55134, 42.49583], [22.55436, 42.49417], [22.55872, 42.48538], [22.55926, 42.48027], [22.55256, 42.47326], [22.55322, 42.47124], [22.5495, 42.46677], [22.54389, 42.4635], [22.54388, 42.45882], [22.54052, 42.454], [22.54398, 42.44874], [22.54096, 42.44597], [22.54149, 42.4404], [22.53727, 42.43657], [22.53549, 42.43136], [22.53531, 42.42119], [22.52629, 42.41705], [22.52287, 42.41273], [22.5221, 42.40396], [22.52023, 42.40144], [22.52114, 42.39781], [22.51377, 42.39471], [22.50823, 42.39735], [22.47797, 42.39415], [22.48088, 42.3875], [22.48059, 42.38025], [22.46927, 42.37602], [22.46857, 42.37113], [22.45953, 42.36201], [22.46107, 42.34714], [22.4633, 42.34493], [22.45293, 42.33172], [22.44019, 42.32854], [22.43229, 42.32303], [22.42363, 42.33385], [22.42099, 42.33063], [22.41549, 42.32931], [22.40377, 42.3326], [22.40123, 42.32638], [22.38835, 42.32548], [22.3865, 42.32298], [22.38033, 42.32417], [22.36968, 42.32168], [22.36583, 42.32396], [22.36642, 42.32095], [22.36305, 42.31803], [22.36022, 42.3111], [22.35653, 42.3114], [22.35078, 42.31799], [22.3333, 42.32123], [22.32258, 42.33409], [22.31644, 42.33171], [22.31434, 42.33273], [22.30895, 42.33909], [22.29218, 42.34966], [22.29087, 42.35262], [22.2951, 42.36254], [22.29906, 42.36494], [22.29769, 42.37097], [22.29398, 42.3739], [22.28085, 42.36873], [22.27318, 42.36134], [22.2689, 42.36214], [22.26343, 42.36667], [22.25155, 42.36237], [22.25279, 42.35561], [22.25103, 42.35088], [22.23686, 42.35012], [22.23653, 42.34834], [22.24097, 42.34845], [22.24415, 42.34634], [22.22954, 42.33566], [22.22219, 42.33489], [22.22263, 42.33697], [22.21933, 42.33863], [22.20641, 42.33627], [22.20216, 42.34039], [22.19477, 42.33987], [22.18703, 42.33405], [22.18153, 42.33256], [22.18152, 42.3253], [22.17375, 42.3216], [22.17084, 42.31584], [22.1665, 42.31229], [22.16184, 42.31365], [22.15894, 42.31793], [22.14547, 42.32142], [22.1395, 42.31432], [22.14002, 42.31256], [22.13279, 42.30725], [22.12542, 42.30947], [22.11895, 42.31503], [22.10933, 42.30888], [22.10512, 42.30963], [22.10135, 42.30542], [22.09789, 42.30712], [22.08449, 42.30242], [22.07417, 42.30336], [22.07128, 42.29996], [22.06558, 42.2985], [22.061, 42.30369], [22.05446, 42.30403], [22.05059, 42.30771], [22.04511, 42.30742], [22.0319, 42.29813], [22.02308, 42.30063], [22.01765, 42.30797], [22.00858, 42.3107], [22.00646, 42.31497], [21.99699, 42.32069], [21.98625, 42.32541], [21.97845, 42.32611], [21.96543, 42.33501], [21.96242, 42.33493], [21.95723, 42.33995], [21.95041, 42.34115], [21.94599, 42.34459], [21.93304, 42.34064], [21.93478, 42.33969], [21.93232, 42.33852], [21.93469, 42.33638], [21.93037, 42.32489], [21.9283, 42.31001], [21.92156, 42.30601], [21.89917, 42.30119], [21.89262, 42.3007], [21.88317, 42.31335], [21.87778, 42.31205], [21.87637, 42.30972], [21.87381, 42.31083], [21.87349, 42.3085], [21.86888, 42.30937], [21.86564, 42.31757], [21.85995, 42.31952], [21.85715, 42.32326], [21.85164, 42.32581], [21.8381, 42.32362], [21.83378, 42.32057], [21.83575, 42.31151], [21.82597, 42.30546], [21.82353, 42.30321], [21.82567, 42.30141], [21.82415, 42.29932], [21.81531, 42.29381], [21.80359, 42.29368], [21.79508, 42.29863], [21.78952, 42.28458], [21.78692, 42.2847], [21.78609, 42.28019], [21.77925, 42.27819], [21.77786, 42.27593], [21.78078, 42.27597], [21.77966, 42.27293], [21.78104, 42.27254], [21.77509, 42.27147], [21.7797, 42.26823], [21.77692, 42.26755], [21.77873, 42.26696], [21.77713, 42.26501], [21.77252, 42.26826], [21.7732, 42.26434], [21.76907, 42.26617], [21.76523, 42.25966], [21.75692, 42.25693], [21.75049, 42.26113], [21.73364, 42.26099], [21.72726, 42.26465], [21.72747, 42.26093], [21.7242, 42.26073], [21.72528, 42.25803], [21.72098, 42.25735], [21.7179, 42.25369], [21.71472, 42.25442], [21.7139, 42.24386], [21.712, 42.24417], [21.71176, 42.24124], [21.7048, 42.23673], [21.70215, 42.23689], [21.7022, 42.23401], [21.69897, 42.23245], [21.69444, 42.23313], [21.69105, 42.23883], [21.68428, 42.24214], [21.67883, 42.24279], [21.67963, 42.24112], [21.67592, 42.24073], [21.67332, 42.24326], [21.66617, 42.24213], [21.66357, 42.24389], [21.6633, 42.24653], [21.65779, 42.24892], [21.65498, 42.24709], [21.64951, 42.24957], [21.62812, 42.25105], [21.61916, 42.25314], [21.61283, 42.25714], [21.60544, 42.25476], [21.60028, 42.25675], [21.60092, 42.25428], [21.58695, 42.26284], [21.56905, 42.25074], [21.56305, 42.25074], [21.55855, 42.25302], [21.55769, 42.25077], [21.55371, 42.25042], [21.54957, 42.25359], [21.54491, 42.25363], [21.5443, 42.25113], [21.54276, 42.25245], [21.5388, 42.25048], [21.53204, 42.24062], [21.52128, 42.24147], [21.51769, 42.25949], [21.52015, 42.26065], [21.51112, 42.26602], [21.51114, 42.27054], [21.50722, 42.27188], [21.5039, 42.2698], [21.49623, 42.2746], [21.48666, 42.27391], [21.4708, 42.28004], [21.45666, 42.2765], [21.45024, 42.27673], [21.44828, 42.27905], [21.43999, 42.27427], [21.44042, 42.26234], [21.43216, 42.2598], [21.43491, 42.24962], [21.44354, 42.24129], [21.44214, 42.23939], [21.44432, 42.23493], [21.43394, 42.23169], [21.42977, 42.23667], [21.42692, 42.23622], [21.42437, 42.2398], [21.42032, 42.24103], [21.42198, 42.24239], [21.41983, 42.24226], [21.41723, 42.24578], [21.41382, 42.24392], [21.40922, 42.24711], [21.40357, 42.2469], [21.40129, 42.24916], [21.39082, 42.24556], [21.3851, 42.24648], [21.38215, 42.24461], [21.38567, 42.24146], [21.37534, 42.23595], [21.37495, 42.23099], [21.36968, 42.22729], [21.37129, 42.22425], [21.36674, 42.22117], [21.36139, 42.22217], [21.35838, 42.22077], [21.35616, 42.21508], [21.35257, 42.21532], [21.3458, 42.2048], [21.33834, 42.20368], [21.33502, 42.20748], [21.33575, 42.2051], [21.33393, 42.20482], [21.33106, 42.19907], [21.3352, 42.19032], [21.32942, 42.18321], [21.32699, 42.17616], [21.3182, 42.17298], [21.32042, 42.17114], [21.31728, 42.17016], [21.32099, 42.16076], [21.31404, 42.15553], [21.31513, 42.15346], [21.31285, 42.15264], [21.31159, 42.14932], [21.30855, 42.1489], [21.31019, 42.14714], [21.30816, 42.14551], [21.30935, 42.14403], [21.30238, 42.1413], [21.30359, 42.13992], [21.30234, 42.1385], [21.30661, 42.13402], [21.30462, 42.13375], [21.30523, 42.13209], [21.31053, 42.12768], [21.31201, 42.12124], [21.31626, 42.11838], [21.31509, 42.11457], [21.32129, 42.10802], [21.3035, 42.10447], [21.29936, 42.11093], [21.29554, 42.11218], [21.29135, 42.1051], [21.27889, 42.10104], [21.27261, 42.09593], [21.25688, 42.09279], [21.23913, 42.09389], [21.23344, 42.09531], [21.23345, 42.09824], [21.22231, 42.09374], [21.22039, 42.10202], [21.21653, 42.10413], [21.21256, 42.11096], [21.21521, 42.11416], [21.21692, 42.12403], [21.2145, 42.13282], [21.2106, 42.13499], [21.20806, 42.13842], [21.20868, 42.14059], [21.20589, 42.14205], [21.20512, 42.14506], [21.20324, 42.14488], [21.20296, 42.14761], [21.2, 42.14787], [21.20018, 42.15115], [21.19537, 42.15223], [21.19596, 42.15463], [21.19216, 42.15554], [21.19097, 42.15972], [21.18455, 42.163], [21.18658, 42.16399], [21.18522, 42.16515], [21.1806, 42.16675], [21.17408, 42.17953], [21.16825, 42.18556], [21.17117, 42.1869], [21.16237, 42.19663], [21.12536, 42.2022], [21.1191, 42.20684], [21.10388, 42.20595], [21.09747, 42.20245], [21.0913, 42.1942], [21.08071, 42.1888], [21.0688, 42.18627], [21.06147, 42.18142], [21.04953, 42.16655], [21.04325, 42.16609], [21.02824, 42.15613], [21.02644, 42.15225], [21.00926, 42.15062], [21.00114, 42.14531], [20.98619, 42.14222], [20.98264, 42.13918], [20.97275, 42.13898], [20.96939, 42.13657], [20.94482, 42.13809], [20.92794, 42.12733], [20.92001, 42.12858], [20.91449, 42.11521], [20.89842, 42.10495], [20.89154, 42.09744], [20.87715, 42.09621], [20.86063, 42.09965], [20.84322, 42.09862], [20.83414, 42.08597], [20.80259, 42.08164], [20.79281, 42.08365], [20.78465, 42.07889], [20.78392, 42.07458], [20.78599, 42.07175], [20.77129, 42.0596], [20.75821, 42.05341], [20.7594, 42.04815], [20.76299, 42.04498], [20.76507, 42.0453], [20.76355, 42.04083], [20.74815, 42.02571], [20.75208, 42.01517], [20.74826, 41.99542], [20.74876, 41.98238], [20.75438, 41.97965], [20.76712, 41.96276], [20.76603, 41.95363], [20.75906, 41.95107], [20.75474, 41.94678], [20.76873, 41.92919], [20.77294, 41.92676], [20.77059, 41.9245], [20.77216, 41.92107], [20.77652, 41.91849], [20.75568, 41.90607], [20.74971, 41.89486], [20.74047, 41.8928], [20.73635, 41.88647], [20.73584, 41.8769], [20.72797, 41.86428], [20.70696, 41.86571], [20.68348, 41.85773], [20.68127, 41.85959], [20.67848, 41.86853], [20.67055, 41.87341], [20.66335, 41.87527], [20.64843, 41.87453], [20.6364, 41.86353], [20.61925, 41.85779], [20.60404, 41.86777], [20.59437, 41.87719], [20.59372, 41.88442], [20.58864, 41.88962], [20.57577, 41.91751], [20.58553, 41.91759], [20.59014, 41.92672], [20.60517, 41.93083], [20.61943, 41.9394], [20.6236, 41.95654], [20.62659, 41.96098], [20.62426, 41.97433], [20.6216, 41.97854], [20.61182, 41.98542], [20.61171, 41.98965], [20.60157, 42.01706], [20.5973, 42.0197], [20.59455, 42.04278], [20.5759, 42.05813], [20.56982, 42.05906], [20.55776, 42.0752], [20.559, 42.07886], [20.55458, 42.08259], [20.56359, 42.09515], [20.56752, 42.09785], [20.56094, 42.10865], [20.56812, 42.12122], [20.56213, 42.13293], [20.55539, 42.14004], [20.55854, 42.14657], [20.54307, 42.16066], [20.54709, 42.16471], [20.54276, 42.16623], [20.54256, 42.17172], [20.53696, 42.17682], [20.53149, 42.18594], [20.52416, 42.21045], [20.514, 42.2243], [20.50215, 42.22812], [20.4964, 42.2412], [20.47673, 42.25343], [20.4753, 42.2588], [20.46384, 42.26546], [20.4564, 42.27225], [20.44442, 42.27482], [20.44195, 42.27736], [20.42477, 42.27848], [20.42323, 42.28252], [20.40469, 42.28468], [20.39477, 42.29865], [20.3906, 42.2982], [20.37414, 42.30571], [20.3534, 42.30964], [20.35391, 42.31722], [20.34843, 42.32062], [20.34583, 42.32491], [20.33913, 42.3277], [20.32724, 42.32773], [20.32116, 42.32201], [20.31402, 42.32043], [20.30872, 42.31532], [20.30552, 42.31492], [20.29416, 42.32093], [20.2927, 42.32347], [20.25726, 42.31878], [20.25476, 42.32251], [20.24836, 42.32267], [20.24261, 42.32696], [20.24785, 42.33317], [20.24225, 42.34203], [20.23606, 42.34734], [20.2448, 42.35296], [20.2452, 42.37], [20.24024, 42.37363], [20.24165, 42.37577], [20.24009, 42.38011], [20.23566, 42.38123], [20.23378, 42.38498], [20.22152, 42.39316], [20.20988, 42.39829], [20.20801, 42.40162], [20.21401, 42.40971], [20.2261, 42.4144], [20.22764, 42.41925], [20.22664, 42.4233], [20.22309, 42.4257], [20.22063, 42.4337], [20.21137, 42.43912], [20.20781, 42.44453], [20.19299, 42.45247], [20.19204, 42.45676], [20.1968, 42.46246], [20.18916, 42.47033], [20.18245, 42.47301], [20.18026, 42.48659], [20.17124, 42.49074], [20.16735, 42.49576], [20.16597, 42.49922], [20.16717, 42.50251], [20.16505, 42.50668], [20.16145, 42.50699], [20.14953, 42.5144], [20.12286, 42.52221], [20.12125, 42.52347], [20.12189, 42.52566], [20.10022, 42.53258], [20.09795, 42.53428], [20.09572, 42.54155], [20.08953, 42.54537], [20.08831, 42.55067], [20.0763, 42.55582], [20.07888, 42.55609], [20.08398, 42.57059], [20.08849, 42.576], [20.08573, 42.58245], [20.08617, 42.58745], [20.07282, 42.6069], [20.07613, 42.6147], [20.07573, 42.62091], [20.08994, 42.6309], [20.09701, 42.64261], [20.1087, 42.64783], [20.11194, 42.6554], [20.08857, 42.66872], [20.08339, 42.68004], [20.06827, 42.68029], [20.06367, 42.68486], [20.05443, 42.68479], [20.04507, 42.69548], [20.03333, 42.69705], [20.03152, 42.70589], [20.03319, 42.71074], [20.01635, 42.70925], [20.01728, 42.71359], [20.02649, 42.71541], [20.03219, 42.72013], [20.01864, 42.72441], [20.01492, 42.72834], [20.01627, 42.73519], [20.0143, 42.74082], [20.01657, 42.74464], [20.0196, 42.74478], [20.0233, 42.75181], [20.02204, 42.75752], [20.02465, 42.76514], [20.03229, 42.76491], [20.03338, 42.76888], [20.04343, 42.77457], [20.04734, 42.77349], [20.06038, 42.77907], [20.06995, 42.7749], [20.08492, 42.77431], [20.09819, 42.77671], [20.10479, 42.77301], [20.10371, 42.77009], [20.11499, 42.76387], [20.12578, 42.76266], [20.14676, 42.75461], [20.14888, 42.76335], [20.15499, 42.76841], [20.16766, 42.76176], [20.17383, 42.75546], [20.18276, 42.75362], [20.19117, 42.74528], [20.19573, 42.75043], [20.20591, 42.74936], [20.21286, 42.74623], [20.21322, 42.74874], [20.22169, 42.75261], [20.23432, 42.75275], [20.23677, 42.75685], [20.25043, 42.75917], [20.25537, 42.77001], [20.26604, 42.77829], [20.26345, 42.78885], [20.26277, 42.80417], [20.25833, 42.80482], [20.25236, 42.81074], [20.25517, 42.81448], [20.2618, 42.81496], [20.27376, 42.81994], [20.27596, 42.82178], [20.27516, 42.8255], [20.2806, 42.83037], [20.28541, 42.82617], [20.29239, 42.82528], [20.29387, 42.82552], [20.29801, 42.8362], [20.31556, 42.83604], [20.31664, 42.82913], [20.32009, 42.82621], [20.32782, 42.83338], [20.33509, 42.83586], [20.33996, 42.83619], [20.34355, 42.83313], [20.35293, 42.83338]]}}]}